HubId,StopId,Code,Name,StopType,Zone,Street,Lng,Lat,Routes
0,1,Q6 095,Chu Văn An,Trụ dừng,Quận 6,Tháp Mười,106.652554,10.750232,"01, 07, 10, 150, 25, 56"
1,2,Q5 016,Chợ Kim Biên,Trụ dừng,Quận 5,Hải Thượng Lãn Ông,106.655075,10.750732,"01, 07, 25, 39, 47, 56"
2,3,Q5 011,Bưu điện Quận 5,Ô sơn,Quận 5,Châu Văn Liêm,106.659203,10.751368,"01, 07, 08, 45, 56, 62"
3,4,Q5 055,Lương Nhữ Học,Trụ dừng,Quận 5,Nguyễn Trãi,106.660418,10.752962,"01, 91"
4,5,Q5 012,Rạp Đại Quang,Nhà chờ,Quận 5,Châu Văn Liêm,106.658937,10.752566,"01, 07, 08, 10, 45, 56, 62"
5,8,BX14,Bến xe Chợ Lớn,Bến xe,Quận 5,Lê Quang Sung,106.6525650024414,10.751253128051758,"01, 05, 06, 07, 09, 150, 23, 47, 56, 62-1, 62-10, 62-7, 62-8, 81, 94"
6,11,Q5 072,Siêu thị Điện máy,Trụ dừng,Quận 5,Nguyễn Tri Phương,106.669418,10.754023,"01, 59"
7,14,Q5 099,Nhà Văn hóa Quận 5,Trụ dừng,Quận 5,Trần Phú,106.668588,10.753025,"01, 59"
8,18,Q1 131,Chợ Nanci,Trụ dừng,Quận 1,Trần Hưng Đạo,106.685883,10.75699,"01, 139, 152"
9,25,Q1 136,Rạp Trần Hưng Đạo,Nhà chờ,Quận 1,Trần Hưng Đạo,106.692722,10.76483,"01, 139, 152, 45, 53, 56"
10,26,Q1 137,KTX Trần Hưng Đạo,Nhà chờ,Quận 1,Trần Hưng Đạo,106.694824,10.767064,"01, 139, 152, 45, 53, 56, 88"
11,27,Q1 138,Nguyễn Kim,Nhà chờ,Quận 1,Trần Hưng Đạo,106.695847,10.768327,"01, 152, 31, 38, 45, 53, 56, 75, 88"
12,31,Q1 024,Bến Bạch Đằng,Nhà chờ,Quận 1,Tôn Đức Thắng,106.706654,10.774094,"01, 03, 19, 45, 53, 56, 88, DL01, DL02"
13,32,Q1 017,Hồ Tùng Mậu,Nhà chờ,Quận 1,Hàm Nghi,106.704074,10.770722,"01, 03, 19, 20, 45, 56, 75, 88, DL01"
14,33,BX 06,Công Trường Mê Linh,Bến xe,Quận 1,Thi Sách,106.705856,10.77679,01
15,34,Q1 057,Công Trường Mê Linh,Nhà chờ,Quận 1,Hai Bà Trưng,106.705822,10.775997,"01, 03, 19, 45"
16,35,BX 01,Bến xe buýt Sài Gòn,Bến xe,Quận 1,Lê Lai,106.689362,10.767676,"03, 04, 102, 109, 13, 140, 18, 19, 20, 27, 28, 34, 36, 39, 52, 65, 69, 72, 75, 88, 93, D4"
17,43,Q1 062,Công viên Lê Văn Tám,Nhà chờ,Quận 1,Hai Bà Trưng,106.692599,10.787427,"03, 31, 36"
18,47,Q1 064,Chợ Tân Định,Trụ dừng,Quận 1,Hai Bà Trưng,106.688843,10.790456,"03, 31, 36"
19,50,QPN 001,Ngã tư Phú Nhuận,Trụ dừng,Quận Phú Nhuận,Nguyễn Kiệm,106.680138,10.799713,"03, 55"
20,56,QGV 040,Cầu vượt Nguyễn Thái Sơn - Nguyễn Kiệm,Trụ dừng,Quận Gò Vấp,Nguyễn Thái Sơn,106.680443,10.816282,"03, 07, 103, 148, 55, 59"
21,57,QGV 042,Ngã ba Phạm Ngũ Lão,Trụ dừng,Quận Gò Vấp,Nguyễn Thái Sơn,106.683147,10.819712,"03, 07, 103, 148, 55, 59"
22,60,QGV 187 ,Cầu vượt ngã sáu Gò Vấp,Trụ dừng,Quận Gò Vấp,Phạm Ngũ Lão ,106.681221,10.824607,"03, 07, 103, 148, 55, 59"
23,72,QGV 109,Ngã tư An Nhơn,Trụ dừng,Quận Gò Vấp,Nguyễn Oanh,106.676833,10.842268,"03, 32, 59"
24,75,BX38,Thạnh Xuân,Bến xe,Quận 12,Thạnh Xuân 52,106.673427,10.89288,03
25,76,Q1 020,Cục Hải Quan Thành Phố,Nhà chờ,Quận 1,Hàm Nghi,106.705549,10.770885,"01, 03, 123, 124, 19, 45, 56, 88"
26,79,Q1 031,Bến Bạch Đằng,Trụ dừng,Quận 1,Tôn Đức Thắng,106.706359,10.773299,"01, 03, 19, 45, 53, 56, 88, DL01"
27,85,Q1 145,Nguyễn Trãi,Trụ dừng,Quận 1,Nguyễn Trãi,106.69268,10.77097,"28, 46, 65"
28,86,Q1 147,Nhà thờ Huyện Sỹ,Trụ dừng,Quận 1,Nguyễn Trãi,106.688591,10.767692,"27, 46, 53"
29,89,Q3 072,Trung ương Hội Chữ thập đỏ TP,Nhà chờ,Quận 3,Nguyễn Thị Minh Khai,106.683657,10.767723,"05, 06, 14, 27, 38, 53"
30,90,Q3 073,Nhà sách Minh Khai,Trụ dừng,Quận 3,Nguyễn Thị Minh Khai,106.68238,10.766395,"05, 06, 14, 27, 38, 53"
31,95,Q10 003,Học viện Hành chính Quốc gia,Nhà chờ,Quận 10,Đường 3/2,106.676951,10.773457,"07, 10, 91"
32,97,Q10 005,Nhà hát Hòa Bình,Nhà chờ,Quận 10,Đường 3/2,106.674202,10.771712,"07, 91"
33,100,Q11 001,Nhà sách Phương Nam,Nhà chờ,Quận 11,Đường 3/2,106.658409,10.763115,"103, 14, 27"
34,103,Q11 003,Tạ Uyên,Trụ dừng,Quận 11,Đường 3/2,106.653557,10.760535,"103, 14"
35,110,Q6 026,Chợ Hoa,Trụ dừng,Quận 6,Hậu Giang,106.637437,10.748714,"148, 25, 61"
36,111,Q6 025,Cầu Hậu Giang,Trụ dừng,Quận 6,Hậu Giang,106.641503,10.749736,"148, 25, 61"
37,114,Q6 029,Đồng Quê,Biển treo,Quận 6,Hậu Giang,106.628382,10.746511,"148, 25, 91"
38,115,Q6 030,Mũi Tàu Phú Lâm,Trụ dừng,Quận 6,Hậu Giang,106.624686,10.745536,"10, 148, 25"
39,117,QBT 011,Vòng xoay Kinh Dương Vương,Trụ dừng,Quận Bình Tân,Kinh Dương Vương,106.622475,10.744746,"09, 139, 14, 148, 25, 32, 61, 62-1, 62-10, 62-2, 62-8, 63-1, 84"
40,120,Q1 124,Trường Ernst Thalmann,Nhà chờ,Quận 1,Trần Hưng Đạo,106.695923,10.768772,"01, 139, 28, 45, 69"
41,121,Q1 125,KTX Trần Hưng Đạo,Nhà chờ,Quận 1,Trần Hưng Đạo,106.694695,10.767363,"01, 139, 152, 45, 56"
42,122,Q1 126,Rạp Hưng Đạo,Nhà chờ,Quận 1,Trần Hưng Đạo,106.693375,10.765832,"01, 139, 152, 45, 56"
43,126,Q1 130,Chợ Nanci,Trụ dừng,Quận 1,Trần Hưng Đạo,106.686035,10.757467,"01, 139, 152"
44,137,Q5 014,Bưu điện Quận 5,Ô sơn,Quận 5,Châu Văn Liêm,106.658894,10.751381,"01, 07, 08, 45, 56, 62"
45,138,Q5 015,Hải Thượng Lãn Ông,Trụ dừng,Quận 5,Hải Thượng Lãn Ông,106.658358,10.750948,"01, 07, 25, 39, 47, 56"
46,140,QBT 010,Kinh Dương Vương,Trụ dừng,Quận Bình Tân,Kinh Dương Vương,106.623162,10.744919,"09, 139, 14, 148, 25, 32, 61, 62-1, 62-10, 62-2, 62-8, 63-1, 84"
47,141,Q6 031,Mũi Tàu Phú Lâm,Biển treo,Quận 6,Hậu Giang,106.624466,10.745362,"148, 25, 91"
48,142,Q6 034,Nguyễn Văn Luông,Trụ dừng,Quận 6,Hậu Giang,106.636192,10.74826,"148, 25, 61"
49,144,Q6 035,Chợ Hoa,Trụ dừng,Quận 6,Hậu Giang,106.638204,10.748756,"148, 25, 61"
50,153,Q11 013,Tạ Uyên,Trụ dừng,Quận 11,Đường 3/2,106.653763,10.760371,"103, 14, 62"
51,154,Q11 014,Lê Đại Hành,Trụ dừng,Quận 11,Đường 3/2,106.656006,10.761562,"103, 14, 62"
52,155,Q11 015,Phú Thọ,Nhà chờ,Quận 11,Đường 3/2,106.657881,10.762574,"103, 14, 27"
53,166,BX41,Bến xe An Sương,Bến xe,Quận 12,Quốc lộ 22,106.61337280273438,10.843737602233888,"04, 104, 122, 151, 27, 33, 41, 60-5, 61-3, 62-5, 65, 71, 74, 85"
54,169,Q12 139,Cầu Tham Lương - Siêu thị Thiên Hòa,Nhà chờ,Quận 12,Trường Chinh,106.62586,10.82624,"04, 104, 13, 145, 23, 27, 41, 62, 65, 94"
55,173,QTP 011,Trạm KCN Tân Bình,Nhà chờ,Quận Tân Phú,Trường Chinh,106.630615,10.819386,"04, 104, 145, 23, 27, 28, 62, 65"
56,174,QTP 010,Trạm Dệt Thành Công,Nhà chờ,Quận Tân Phú,Trường Chinh,106.629825,10.822315,"04, 104, 13, 145, 23, 27, 32, 41, 62, 65, 94"
57,175,QTP 013,Chế Lan Viên,Nhà chờ,Quận Tân Phú,Trường Chinh,106.632748,10.812878,"04, 104, 145, 16, 23, 27, 28, 62, 63-1, 65"
58,177,QTP 014,Trạm Đài Liệt Sỹ,Nhà chờ,Quận Tân Phú,Trường Chinh,106.634019,10.808689,"04, 104, 145, 16, 23, 27, 28, 48, 60-7, 62, 63-1, 65"
59,184,QTB 125,Siêu thị Maximart Cộng Hòa,Nhà chờ,Quận Tân Bình,Cộng Hòa,106.658819,10.800833,"04, 104, 145, 28, 60-7, 63-1"
60,186,QTB 037,Bảo Tàng Miền Đông,Nhà chờ,Quận Tân Bình,Hoàng Văn Thụ,106.666372,10.800237,"04, 08, 104, 109, 152, 60-7, 63-1, 64"
61,187,QTB 036,Công viên Hoàng Văn Thụ,Nhà chờ,Quận Tân Bình,Hoàng Văn Thụ,106.663578,10.800469,"04, 08, 103, 104, 148, 50, 59, 60-7, 63-1, 64"
62,192,Q3 052,Chùa Vĩnh Nghiêm,Trụ dừng,Quận 3,Nam Kỳ Khởi Nghĩa,106.683022,10.790381,"04, 109, 152, 72-1"
63,195,Q3 056,Coop Mart Nguyễn Đình Chiểu,Nhà chờ,Quận 3,Nam Kỳ Khởi Nghĩa,106.693152,10.78113,"04, 109, 152, 31, 93"
64,199,Q1 076,Chùa Ông,Trụ dừng,Quận 1,Nam Kỳ Khởi Nghĩa,106.699722,10.773957,"04, 109, 152, 18, 31, 36, 44, 52, 93"
65,200,Q1 075,Tòa án Nhân dân Thành Phố,Nhà chờ,Quận 1,Nam Kỳ Khởi Nghĩa,106.698647,10.776052,"04, 109, 152, 18, 31, 36, 52, 93"
66,201,Q1 077,Trường CĐKT Cao Thắng,Trụ dừng,Quận 1,Nam Kỳ Khởi Nghĩa,106.700851,10.771416,"04, 109, 152, 18, 31, 36, 44, 52, 93"
67,208,Q12 055,Ngã tư Ga,Trụ dừng,Quận 12,Hà Huy Giáp,106.679649,10.857984,"03, 32, 59"
68,212,QGV 114,Bưu điện An Nhơn,Trụ dừng,Quận Gò Vấp,Nguyễn Oanh,106.677214,10.843975,"03, 32, 59"
69,213,Q12 033,Ngã tư Ga,Trụ dừng,Quận 12,Hà Huy Giáp,106.679907,10.857331,"03, 32, 59"
70,219,QGV 121,Cầu vượt ngã sáu Gò Vấp,Trụ dừng,Quận Gò Vấp,Nguyễn Kiệm,106.678968,10.823738,"03, 07, 103, 148, 55, 59"
71,221,QGV 123,Bệnh Viện 175,Trụ dừng,Quận Gò Vấp,Nguyễn Kiệm,106.678727,10.820044,"03, 07, 103, 148, 55, 59"
72,223,QGV 124,Chợ Tân Sơn Nhất,Trụ dừng,Quận Gò Vấp,Nguyễn Kiệm,106.678598,10.816772,"03, 07, 103, 148, 55, 59"
73,224,QPN 034,Đầu công viên Gia Định,Nhà chờ,Quận Phú Nhuận,Hoàng Minh Giám,106.677681,10.813442,"03, 07, 148, 50, 55, 59"
74,225,QPN 035,Cuối công viên Gia Định,Nhà chờ,Quận Phú Nhuận,Hoàng Minh Giám,106.674741,10.809906,"03, 07, 148, 50, 55, 59"
75,229,QPN 025,Trung tâm hội nghị tiệc cưới White Palace,Trụ dừng,Quận Phú Nhuận,Hồ Văn Huê,106.675025,10.800074,"03, 07, 55"
76,232,QPN 009,Ngã tư Phú Nhuận,Trụ dừng,Quận Phú Nhuận,Hoàng Văn Thụ,106.679354,10.799088,"03, 08, 104, 55, 60-7, 64"
77,233,Q3 031,Công viên Lê Văn Tám,Trụ dừng,Quận 3,Hai Bà Trưng,106.692653,10.787174,"03, 18, 31"
78,234,Q3 030,Chợ Tân Định,Trụ dừng,Quận 3,Hai Bà Trưng,106.690445,10.788972,"03, 31, 36"
79,237,Q1 066,Bệnh viện Nhi Đồng 2,Nhà chờ,Quận 1,Hai Bà Trưng,106.701744,10.779385,"03, 19, 45"
80,242,Q1 092,Nhà Văn Hóa Lao Động,Nhà chờ,Quận 1,Nguyễn Thị Minh Khai,106.692757,10.777097,"05, 06, 14, 28"
81,244,Q3 083,Điện Biên Phủ,Nhà chờ,Quận 3,Pasteur,106.692749,10.783419,"04, 109, 152, 93"
82,246,Q3 101,Nhà thiếu nhi thành phố,Nhà chờ,Quận 3,Võ Thị Sáu,106.689613,10.785583,"04, 109, 152, 30, 91"
83,252,QPN 049,Trung tâm văn hóa Quận Phú Nhuận,Trụ dừng,Quận Phú Nhuận,Nguyễn Văn Trỗi,106.676093,10.795421,"04, 07, 109, 152"
84,256,QTB 099,Cổng trước SVĐ Quân Khu 7,Nhà chờ,Quận Tân Bình,Phan Đình Giót,106.66678,10.800848,"04, 07, 08, 104, 109, 152, 60-7, 63-1, 64"
85,258,QTB 107,Vòng xoay Lăng Cha Cả,Nhà chờ,Quận Tân Bình,Trần Quốc Hoàn,106.662312,10.801365,"04, 08, 103, 104, 109, 148, 152, 50, 59, 60-7, 63-1, 64"
86,259,QTB 110,Siêu thị Maximark Cộng Hòa,Ô sơn,Quận Tân Bình,Cộng Hòa,106.659168,10.801038,"04, 104, 145, 28, 60-7, 63-1"
87,265,QTB 116,ETown,Trụ dừng,Quận Tân Bình,Cộng Hòa,106.640967,10.802571,"04, 104, 145, 28, 60-7, 63-1"
88,266,QTB 117,Thượng Uyển,Nhà chờ,Quận Tân Bình,Cộng Hòa,106.636192,10.806313,"04, 104, 145, 28, 60-7, 63-1"
89,267,QTB 076,Ngã ba Chế Lan Viên,Nhà chờ,Quận Tân Bình,Trường Chinh,106.633349,10.812204,"04, 104, 145, 16, 23, 27, 28, 60-7, 62, 63-1, 65"
90,268,QTB 075,Mũi tàu Cộng Hòa,Trụ dừng,Quận Tân Bình,Trường Chinh,106.634638,10.808314,"04, 104, 145, 16, 23, 27, 28, 60-7, 62, 63-1, 65"
91,271,QTB 079,Khu Công Nghiệp Tân Bình,Nhà chờ,Quận Tân Bình,Trường Chinh,106.630254,10.822452,"04, 104, 13, 145, 23, 27, 32, 41, 62, 65, 94"
92,272,Q12 128,Cầu Tham Lương - Siêu thị Thiên Hòa,Nhà chờ,Quận 12,Trường Chinh,106.625828,10.826957,"04, 104, 145, 23, 27, 41, 62, 65"
93,273,Q12 129,Chùa Vĩnh Phước,Nhà chờ,Quận 12,Trường Chinh,106.624594,10.828627,"04, 104, 13, 145, 27, 41, 65, 94"
94,278,BX84,Bến xe buýt Chợ Lớn - B,Bến xe,Quận 6,Lê Quang Sung,106.65107,10.751185,"101, 145, 23, 61, 62-2, 68, 84"
95,281,Q5 043,Bệnh viện Chợ Rẫy,Nhà chờ,Quận 5,Nguyễn Chí Thanh,106.660128,10.758079,"05, 45, 62, 94"
96,284,Q5 046,Trường Kinh tế Công nghệ,Nhà chờ,Quận 5,Nguyễn Chí Thanh,106.668019,10.759649,"05, 45"
97,285,Q10 023,Trường Khiếm thị Nguyễn Đình Chiểu,Trụ dừng,Quận 10,Ngô Gia Tự,106.669511,10.760582,"05, 150"
98,286,Q10 024,Hòa Hảo,Trụ dừng,Quận 10,Ngô Gia Tự,106.671093,10.762933,"05, 150"
99,287,Q1 088,Phạm Viết Chánh,Nhà chờ,Quận 1,Nguyễn Thị Minh Khai,106.682533,10.766214,"05, 06, 14, 38, 69"
100,288,Q10 020,Chợ Lê Hồng Phong,Nhà chờ,Quận 10,Lê Hồng Phong,106.675444,10.764703,"05, 91"
101,291,Q1 093,Pasteur,Nhà chờ,Quận 1,Nguyễn Thị Minh Khai,106.696434,10.781031,"05, 06, 14, 31"
102,293,Q1 096,Thảo Cầm Viên,Nhà chờ,Quận 1,Nguyễn Thị Minh Khai,106.70459,10.789598,"05, 06, 14, 19, 52"
103,294,Q1 094,Mạc Đỉnh Chi,Trụ dừng,Quận 1,Nguyễn Thị Minh Khai,106.699503,10.784191,"05, 06, 14, 45, 52"
104,297,QBTH 125,Trung tâm Dưỡng Lão,Trụ dừng,Quận Bình Thạnh,Xô Viết Nghệ Tĩnh,106.71057,10.796533,"05, 06, 14, 19, 44, 52"
105,299,QBTH 123,Ngã Ba Hàng Xanh,Biển treo,Quận Bình Thạnh,Xô Viết Nghệ Tĩnh,106.711509,10.803262,"05, 08, 14, 146, 19, 24, 43, 44, 45, 60-3, 67, 91, 93"
106,301,QBTH 135,Siêu thị Coop Mart,Trụ dừng,Quận Bình Thạnh,Quốc lộ 13,106.71241,10.810791,"05, 08, 14, 146, 19, 24, 43, 45, 60-3, 64, 67, 93"
107,302,QBTH 122,Đài Liệt sĩ,Biển treo,Quận Bình Thạnh,Xô Viết Nghệ Tĩnh,106.711965,10.808831,"05, 08, 14, 146, 19, 24, 44, 45, 60-3, 67, 91, 93"
108,303,QBTH 137,Cổng ra - Bến xe Miền Đông 2,Trụ dừng,Quận Bình Thạnh,Quốc lộ 13,106.712608,10.81232,"08, 146, 24, 45, 64, 67, 93"
109,304,QTD 198,Trường TH Bình Triệu,Trụ dừng,Quận Thủ Đức,Quốc lộ 13,106.71434,10.829247,"05, 19, 91"
110,305,QBTH 138,Cổng ra - Bến xe Miền Đông 1,Trụ dừng,Quận Bình Thạnh,Quốc lộ 13,106.712791,10.813853,"05, 08, 146, 43, 45, 60-3, 64, 67, 91, 93"
111,307,QTD 203,Cân Nhơn Hòa,Trụ dừng,Quận Thủ Đức,Quốc lộ 13,106.718307,10.844687,"05, 19, 91"
112,314,QTD 205,Ngã 3 Đường Hiệp Bình,Trụ dừng,Quận Thủ Đức,Quốc lộ 13,106.721222,10.852921,"05, 19, 89"
113,315,QTD 159,Ngã ba mũi tàu đường Gò Dưa ,Trụ dừng,Quận Thủ Đức,Quốc lộ 1,106.727425,10.86689,"05, 19, 29, 33, 60-1, 60-5, 89"
114,318,QTD 209,Ngã 4 Bình Phước,Trụ dừng,Quận Thủ Đức,Quốc lộ 13,106.724792,10.863845,"05, 19, 89, 91"
115,320,QTD 160,Chợ Đầu Mối,Trụ dừng,Quận Thủ Đức,Quốc lộ 1,106.730198,10.86831,"05, 19, 29, 33, 60-1, 60-5, 89"
116,334,QTD 112,Big C,Trụ dừng,Quận Thủ Đức,Quốc lộ 1K,106.774583,10.887349,"05, 61-1"
117,339,QTD 187,Cầu vượt Linh Xuân,Trụ dừng,Quận Thủ Đức,Quốc lộ 1,106.762095,10.874474,"05, 19, 33, 60-1"
118,341,QTD 188,Giày Thái Bình-Bình Đường,Trụ dừng,Quận Thủ Đức,Quốc lộ 1,106.758689,10.875454,"05, 19, 33, 60-1"
119,342,QTD 190,Bến xe Lam Hồng,Trụ dừng,Quận Thủ Đức,Quốc lộ 1,106.755631,10.876049,"05, 19, 33, 60-1"
120,347,QTD 195,Chợ đầu mối nông sản Thủ Đức,Nhà chờ,Quận Thủ Đức,Quốc lộ 1,106.729158,10.86812,"05, 19, 29, 33, 60-1, 60-5, 89"
121,349,QTD 214,Ngã 4 Bình Phước,Trụ dừng,Quận Thủ Đức,Quốc lộ 13,106.72451,10.863809,"05, 19, 89, 91"
122,355,QTD 218,Ngã 3 Đường Hiệp Bình,Trụ dừng,Quận Thủ Đức,Quốc lộ 13,106.720719,10.852579,"05, 19, 89"
123,358,QTD 220,Cân Nhơn Hòa,Trụ dừng,Quận Thủ Đức,Quốc lộ 13,106.718086,10.844473,"05, 19, 91"
124,360,QTD 225,UBND P.Hiệp Bình Chánh,Nhà chờ,Quận Thủ Đức,Quốc lộ 13,106.714027,10.830039,"05, 19, 91"
125,361,QBTH 038,Cổng vào-Bến xe Miền Đông,Nhà chờ,Quận Bình Thạnh,Đinh Bộ Lĩnh,106.711257,10.816661,"05, 08, 14, 146, 19, 43, 60-3, 91, 93"
126,362,QBTH 039,Ngã Tư Nguyễn Xí,Trụ dừng,Quận Bình Thạnh,Đinh Bộ Lĩnh,106.709223,10.812625,"05, 08, 146, 24, 43, 60-3, 67, 93"
127,366,QBTH 010,Chợ Hàng Xanh,Trụ dừng,Quận Bình Thạnh,Bạch Đằng,106.710511,10.802793,"05, 08, 104, 146, 24, 43, 55, 60-3, 60-7, 67, 91"
128,367,QBTH 129,Trường Tiểu học Hồng Hà,Nhà chờ,Quận Bình Thạnh,Xô Viết Nghệ Tĩnh,106.710591,10.797328,"05, 06, 14, 19, 44, 52"
129,371,Q1 100,nhà thờ Mạc Ti Nho,Nhà chờ,Quận 1,Nguyễn Thị Minh Khai,106.701294,10.786397,"05, 06, 14, 45, 52"
130,374,Q1 099,Đài truyền hình,Nhà chờ,Quận 1,Nguyễn Thị Minh Khai,106.702011,10.787157,"05, 06, 14, 45, 52"
131,377,Q3 106,Bảo tàng chứng tích chiến tranh,Nhà chờ,Quận 3,Võ Văn Tần,106.69254,10.779143,"05, 06, 14, DL01, DL02"
132,378,Q3 085,Hồ Con Rùa,Trụ dừng,Quận 3,Trần Cao Vân,106.696411,10.783314,"05, 06, 14, 52"
133,380,Q3 069,Cách Mạng tháng 8,Trụ dừng,Quận 3,Nguyễn Thị Minh Khai,106.689021,10.77342,"05, 06, 14, 38"
134,384,Q10 080,Ngã tư Trần Bình Trọng,Nhà chờ,Quận 10,Hùng Vương,106.678963,10.763913,"05, 53"
135,393,Q11 021,Bệnh viện Răng Hàm Mặt,Trụ dừng,Quận 11,Nguyễn Chí Thanh,106.660828,10.758364,"05, 45, 62, 94"
136,394,BX73,Đại học Nông Lâm,Bến xe,Quận Thủ Đức,Quốc lộ 1,106.78744506835938,10.868183135986328,"06, 104, 60-2, 89"
137,396,QTD 174,ĐH Nông Lâm,Trụ dừng,Quận Thủ Đức,Quốc lộ 1,106.790283,10.866912,"06, 19, 33, 50, 52, 60-1, 60-2, 93"
138,397,Q5 013,Rạp Đại Quang,Nhà chờ,Quận 5,Châu Văn Liêm,106.658792,10.752445,"07, 08, 45, 56, 62"
139,398,QTD 074,Khu Công nghệ cao Q9,Trụ dừng,Quận Thủ Đức,Xa Lộ Hà Nội,106.791138,10.860218,"06, 08, 150, 30, 52, 60-3, 60-7, 67, 76"
140,400,QTD 065,Trường Đại học Sư phạm Kỹ thuật,Nhà chờ,Quận Thủ Đức,Võ Văn Ngân,106.772105,10.849871,"06, 08, 141, 56, 57, 89"
141,401,QTD 076,Công ty Cocacola,Trụ dừng,Quận Thủ Đức,Xa Lộ Hà Nội,106.784964,10.856483,"06, 08, 150, 30, 52, 60-3, 60-7, 67, 76"
142,402,QTD 066,Siêu thị Nguyễn Kim,Trụ dừng,Quận Thủ Đức,Võ Văn Ngân,106.768837,10.849805,"06, 08, 141, 56, 57, 61-1, 89"
143,406,QTD 059,Làng Thiếu Niên Thủ Đức,Trụ dừng,Quận Thủ Đức,Đặng Văn Bi,106.758698,10.849723,"06, 29, 56"
144,409,QTD 063,Tu viện Quảng Đức,Trụ dừng,Quận Thủ Đức,Đặng Văn Bi,106.766338,10.839349,"06, 29, 56"
145,410,QTD 080,Ngã 4 Bình Thái,Nhà chờ,Quận Thủ Đức,Xa Lộ Hà Nội,106.765244,10.834945,"06, 10, 104, 150, 30, 52, 53, 55, 56, 60-3, 60-7, 67"
146,412,QTD 082,Ngã 4 Tây Hòa (RMK),Nhà chờ,Quận Thủ Đức,Xa Lộ Hà Nội,106.759998,10.825366,"06, 104, 150, 30, 52, 55, 56, 60-3, 60-7, 67, 99"
147,414,QTD 083,Xi măng Hà Tiên,Nhà chờ,Quận Thủ Đức,Xa Lộ Hà Nội,106.758142,10.820576,"06, 104, 150, 30, 52, 55, 56, 60-3, 60-7, 67, 99"
148,415,Q2 075,Cát Lái,Nhà chờ,Quận 2,Xa Lộ Hà Nội,106.747948,10.802925,"06, 10, 104, 150, 30, 52, 55, 56, 60-3, 60-7, 67"
149,417,Q2 077,Thảo Điền,Nhà chờ,Quận 2,Xa Lộ Hà Nội,106.738762,10.801309,"06, 104, 150, 30, 52, 55, 56, 60-3, 60-7, 67, 72-1"
150,418,Q2 078,Cầu Đen,Nhà chờ,Quận 2,Xa Lộ Hà Nội,106.73436,10.800451,"06, 104, 150, 30, 52, 53, 55, 56, 60-3, 60-7, 67, 72-1"
151,419,QBTH 056,Cầu Sài Gòn,Trụ dừng,Quận Bình Thạnh,Điện Biên Phủ,106.719571,10.798893,"06, 104, 150, 43, 52, 55, 60-3, 60-7, 67"
152,420,QBTH 055,Khu Du lịch Văn Thánh,Nhà chờ,Quận Bình Thạnh,Điện Biên Phủ,106.717227,10.800274,"06, 10, 104, 150, 43, 44, 52, 55, 60-3, 60-7, 67"
153,421,QBTH 054,Đại học Hutech,Nhà chờ,Quận Bình Thạnh,Điện Biên Phủ,106.714856,10.801228,"06, 104, 14, 150, 19, 43, 44, 45, 52, 55, 60-3, 60-7, 67, 72-1"
154,422,QBTHT056,UBND Quận Bình Thạnh,Trụ dừng,Quận Bình Thạnh,Phan Đăng Lưu,106.695153,10.802666,"08, 104, 18, 31, 36, 55, 60-7"
155,423,QBTH 053,Cây xăng dầu,Trụ dừng,Quận Bình Thạnh,Điện Biên Phủ,106.712834,10.801697,"06, 104, 14, 150, 19, 43, 44, 45, 52, 55, 60-7, 67"
156,426,Q5 001,Đại học Sư Phạm,Nhà chờ,Quận 5,An Dương Vương,106.68267,10.76103,"06, 139, 38, 45, 56"
157,427,Q5 003,Huỳnh Mẫn Đạt,Trụ dừng,Quận 5,An Dương Vương,106.675272,10.757984,"06, 139, 38, 45, 56"
158,431,Q5 031,Công viên Văn Lang,Nhà chờ,Quận 5,Hùng Vương,106.668566,10.757257,"06, 139, 56, 68, 91"
159,432,Q5 068,Công viên Văn Lang,Trụ dừng,Quận 5,Nguyễn Tri Phương,106.669613,10.757151,"06, 07, 139, 150, 56, 59, 68"
160,433,Q5 017,Bệnh viện Phạm Ngọc Thạch,Nhà chờ,Quận 5,Hồng Bàng,106.664511,10.755897,"06, 07, 139, 150, 56, 68, 91"
161,434,Q5 018,Hùng Vương Plaza,Nhà chờ,Quận 5,Hồng Bàng,106.661072,10.755196,"06, 07, 08, 10, 139, 150, 56, 62, 63-1, 68, 91"
162,436,Q5 019,Bệnh viện Chợ Rẫy,Trụ dừng,Quận 5,Hồng Bàng,106.659501,10.754875,"06, 07, 08, 139, 150, 56, 62, 63-1, 68, 91"
163,437,Q5 025,Bệnh viện Chợ Rẫy,Trụ dừng,Quận 5,Hồng Bàng,106.659232,10.754553,"06, 07, 08, 139, 150, 56, 62, 63-1, 68"
164,439,Q5 026,Đại học Y Dược,Nhà chờ,Quận 5,Hồng Bàng,106.663191,10.75536,"06, 07, 10, 139, 150, 56, 68"
165,440,Q5 027,Bệnh viện Đại học Y Dược,Nhà chờ,Quận 5,Hồng Bàng,106.664683,10.755671,"06, 07, 139, 150, 56, 68"
166,442,Q10 071,Đại học Kinh tế,Trụ dừng,Quận 10,Nguyễn Tri Phương,106.668564,10.761386,"07, 10, 59"
167,446,Q10 074,Học viện Quân y,Trụ dừng,Quận 10,Nguyễn Tri Phương,106.667313,10.767052,"07, 59"
168,449,Q3 042,Chợ Nguyễn Văn Trỗi,Trụ dừng,Quận 3,Lê Văn Sỹ,106.679535,10.787041,"07, 28"
169,461,QPN 038,Đầu công viên Gia Định,Nhà chờ,Quận Phú Nhuận,Hoàng Minh Giám,106.677949,10.813231,"07, 148, 50, 59"
170,462,QGV 045,UBND Phường 5,Trụ dừng,Quận Gò Vấp,Nguyễn Thái Sơn,106.687975,10.825134,"07, 146, 148"
171,464,Q5 023,Bến xe Chợ Lớn,Trụ dừng,Quận 5,Hồng Bàng,106.652334,10.753331,"06, 09, 103, 139, 23, 62-1, 62-10, 62-6, 62-7, 63-1, 68, 81"
172,466,Q5 008,Huỳnh Mẫn Đạt,Trụ dừng,Quận 5,An Dương Vương,106.676576,10.758374,"06, 139, 38, 45, 56"
173,467,Q5 010,Đại học Sài Gòn,Nhà chờ,Quận 5,An Dương Vương,106.682321,10.760672,"06, 139, 38, 45, 56"
174,468,BX43,Bãi hậu cần số 1,Bến xe,Quận Gò Vấp,Phan Văn Trị,106.69188,10.823601,"07, 148"
175,475,QBTH 057,Cầu Sài Gòn,Trụ dừng,Quận Bình Thạnh,Điện Biên Phủ,106.719496,10.798525,"06, 104, 150, 43, 52, 55, 60-3, 60-7, 67"
176,476,QBTH 059,Đại học Hutech,Ô sơn,Quận Bình Thạnh,Điện Biên Phủ,106.714255,10.800827,"06, 104, 150, 43, 52, 55, 60-3, 60-7, 67, 72-1"
177,477,Q2 071,Cầu Đen,Nhà chờ,Quận 2,Xa Lộ Hà Nội,106.7342,10.799978,"06, 10, 104, 150, 30, 52, 53, 55, 56, 60-7, 67, 72-1"
178,478,Q2 072,Thảo Điền,Nhà chờ,Quận 2,Xa Lộ Hà Nội,106.738899,10.800838,"06, 104, 150, 30, 52, 55, 56, 60-3, 60-7, 67"
179,481,Q9 211,Ngã 4 Tây Hòa (RMK),Nhà chờ,Quận 9,Xa Lộ Hà Nội,106.760775,10.825972,"06, 104, 150, 30, 52, 55, 56, 60-3, 60-7, 67, 99"
180,482,Q9 210,Xi măng hà tiên - trạm thu phí,Nhà chờ,Quận 9,Xa Lộ Hà Nội,106.758394,10.819206,"06, 104, 150, 30, 52, 55, 56, 60-3, 60-7, 67, 99"
181,483,Q9 213,Khu QLGTDT số 2,Nhà chờ,Quận 9,Xa Lộ Hà Nội,106.764778,10.833249,"06, 10, 104, 150, 30, 52, 53, 55, 56, 60-7, 67"
182,485,Q9 212,Trạm xây dựng,Nhà chờ,Quận 9,Xa Lộ Hà Nội,106.76312,10.829955,"06, 104, 150, 30, 52, 55, 56, 60-3, 60-7, 67"
183,486,QTD 055,Công ty Sanofi Aventis,Trụ dừng,Quận Thủ Đức,Đặng Văn Bi,106.764175,10.841652,"06, 29, 56"
184,490,QTD 071,Cao đẳng xây dựng 2,Nhà chờ,Quận Thủ Đức,Võ Văn Ngân,106.764439,10.85065,"06, 08, 141, 56, 57, 61-1, 89"
185,493,QTD 070,Ngã ba Chương Dương,Trụ dừng,Quận Thủ Đức,Võ Văn Ngân,106.760931,10.850419,"06, 08, 141, 56, 57, 61-1, 89"
186,494,Q9 218,Công an Quận 9,Nhà chờ,Quận 9,Xa Lộ Hà Nội,106.775066,10.849966,"06, 08, 150, 30, 52, 60-3, 60-7, 67, 76"
187,495,Q9 220,Khu Công nghệ cao quận 9,Nhà chờ,Quận 9,Xa Lộ Hà Nội,106.788869,10.858511,"06, 08, 150, 30, 52, 60-3, 60-7, 67, 76"
188,496,BX 20,Bến xe buýt Quận 8,Bến xe,Quận 8,Quốc lộ 50,106.656357,10.733545,"08, 22, 25, 34, 59, 62, 62-11, 62-9"
189,497,QTD 073,Trường ĐHSP Kỹ Thuật,Trụ dừng,Quận Thủ Đức,Võ Văn Ngân,106.771917,10.849597,"06, 08, 141, 56, 57, 61-1, 89"
190,500,QTD 180,Đại học Nông Lâm,Trụ dừng,Quận Thủ Đức,Quốc lộ 1,106.791101,10.866961,"06, 19, 33, 50, 52, 60-1, 60-2, 93"
191,501,Q8 112,Chợ Xóm Củi,Trụ dừng,Quận 8,Tùng Thiện Vương,106.659763,10.746073,"08, 25, 45, 46, 47, 62"
192,502,Q8 073,Bùi Minh Trực,Ô sơn,Quận 8,Quốc lộ 50,106.656346,10.73646,"08, 25, 45, 47, 59, 62"
193,506,Q10 055,Đại học Bách Khoa,Nhà chờ,Quận 10,Lý Thường Kiệt,106.657698,10.772603,"08, 50, 59, 63-1, 94"
194,510,QTB 034,Bệnh viện Quận Tân Bình,Nhà chờ,Quận Tân Bình,Hoàng Văn Thụ,106.655198,10.79472,"08, 103, 13, 145, 148, 30, 50, 59, 63-1, 64, 65, 94"
195,518,QBTH 006,Chợ Bà Chiểu,Trụ dừng,Quận Bình Thạnh,Bạch Đằng,106.699471,10.802893,"08, 104, 146, 24, 55, 60-7, 91"
196,523,QTD 118,Ngã tư Bình Triệu,Trụ dừng,Quận Thủ Đức,Phạm Văn Đồng,106.715655,10.82603,"08, 50, 93"
197,526,QTD 121,Cá sấu Hoa cà,Nhà chờ,Quận Thủ Đức,Phạm Văn Đồng,106.728331,10.833606,"08, 50, 89, 93"
198,528,QTD 123,Chùa An Lạc,Nhà chờ,Quận Thủ Đức,Phạm Văn Đồng,106.733288,10.837484,"08, 50, 57, 93"
199,529,QTD 124,Cầu Gò Dưa,Nhà chờ,Quận Thủ Đức,Phạm Văn Đồng,106.740509,10.839776,"08, 50, 57, 93"
200,536,Q9 221,Cầu Vượt Trạm 2,Nhà chờ,Quận 9,Quốc lộ 1,106.797538,10.863595,"08, 150, 19, 30, 33, 53, 60-1, 60-2, 60-3, 60-7, 67, 76, 93"
201,537,Q9 223,Suối Tiên,Trụ dừng,Quận 9,Quốc lộ 1,106.802081,10.866113,"08, 150, 19, 30, 33, 53, 60-1, 60-2, 60-3, 67, 76, 93, 99"
202,539,QGV 001,Bãi hậu cần số 1,Trụ dừng,Quận Gò Vấp,Phan Văn Trị,106.69195,10.823964,"07, 36"
203,540,QGV 048,UBND Phường 5,Trụ dừng,Quận Gò Vấp,Nguyễn Thái Sơn,106.688259,10.825513,"07, 146, 148"
204,542,Q8 111,Tùng Thiện Vương,Ô sơn,Quận 8,Tùng Thiện Vương,106.656802,10.744513,"08, 25, 45, 46, 47, 62"
205,544,Q5 033,Bệnh viện Hùng Vương,Nhà chờ,Quận 5,Lý Thường Kiệt,106.662333,10.756013,"08, 62, 63-1"
206,546,Q10 052,Điện lực Phú Thọ,Trụ dừng,Quận 10,Lý Thường Kiệt,106.659763,10.76523,"08, 103, 63-1, 94"
207,551,QTB 025,Cây xăng Đôi,Nhà chờ,Quận Tân Bình,Lý Thường Kiệt,106.654431,10.784002,"08, 50, 59, 63-1, 94"
208,553,QTB 028,Bệnh viện Thống Nhất,Nhà chờ,Quận Tân Bình,Lý Thường Kiệt,106.653074,10.792101,"08, 145, 148, 50, 59, 63-1"
209,557,Q3 047,Chợ Nguyễn Văn Trỗi,Trụ dừng,Quận 3,Lê Văn Sỹ,106.679322,10.786853,"07, 28"
210,564,Q10 075,Học viện Quân y,Trụ dừng,Quận 10,Nguyễn Tri Phương,106.667259,10.766769,"07, 59"
211,568,Q10 001,Siêu thị Maximark,Trụ dừng,Quận 10,Đường 3/2,106.680771,10.777162,"07, 10, 91"
212,569,Q5 036,Ngô Gia Tự,Nhà chờ,Quận 5,Ngô Gia Tự,106.668062,10.758801,"07, 150"
213,571,Q10 078,Đại học kinh tế,Trụ dừng,Quận 10,Nguyễn Tri Phương,106.668488,10.761049,"07, 10, 59"
214,572,QTD 175,Đại học An Ninh Nhân Dân,Trụ dừng,Quận Thủ Đức,Quốc lộ 1,106.806657,10.871402,"08, 150, 19, 30, 60-1, 60-2, 60-3, 67"
215,574,QTD 177,Khu DL Suối Tiên,Nhà chờ,Quận Thủ Đức,Quốc lộ 1,106.801116,10.86605,"08, 10, 150, 19, 30, 33, 53, 60-1, 60-2, 60-3, 60-7, 67, 76, 93, 99"
216,575,QTD 146,Trạm Cầu ngang,Biển treo,Quận Thủ Đức,Kha Vạn Cân,106.751587,10.847199,"08, 57, 93"
217,583,QTD 153,Nút giao Linh Đông -PVĐ,Nhà chờ,Quận Thủ Đức,Phạm Văn Đồng,106.742682,10.84077,"08, 50, 57, 93"
218,584,QTD 155,Cá sấu Hoa Cà,Nhà chờ,Quận Thủ Đức,Phạm Văn Đồng,106.727916,10.833634,"08, 50, 89, 93"
219,585,QTD 154,Chùa An Lạc,Nhà chờ,Quận Thủ Đức,Phạm Văn Đồng,106.732328,10.837284,"08, 50, 89, 93"
220,586,QTD 157,Ngã tư Bình Triệu,Trụ dừng,Quận Thủ Đức,Phạm Văn Đồng,106.715848,10.826557,"08, 50, 93"
221,588,QBTH 002,Nhà thờ Hàng Xanh,Trụ dừng,Quận Bình Thạnh,Bạch Đằng,106.708032,10.803177,"08, 104, 146, 24, 55, 60-7, 91"
222,591,QBTH 115,UBND Quận Bình Thạnh,Trụ dừng,Quận Bình Thạnh,Phan Đăng Lưu,106.695786,10.802819,"08, 104, 18, 31, 36, 55, 60-7, 91"
223,592,QBTH 005,Chợ Bà Chiểu,Trụ dừng,Quận Bình Thạnh,Bạch Đằng,106.699374,10.803125,"08, 104, 146, 24, 55, 60-7, 91"
224,594,QBTH 116,Bệnh Viện Gia Định,Nhà chờ,Quận Bình Thạnh,Phan Đăng Lưu,106.693543,10.803119,"08, 104, 146, 55, 60-7, 64"
225,598,QPN 022,Ngã tư Phan Xích Long,Trụ dừng,Quận Phú Nhuận,Phan Đăng Lưu,106.681892,10.80088,"08, 104, 55, 60-7, 64"
226,599,QPN 010,Ngã tư Phú Nhuận,Trụ dừng,Quận Phú Nhuận,Hoàng Văn Thụ,106.679236,10.799325,"08, 104, 60-7, 64"
227,600,QTB 038,Vòng xoay Lăng Cha Cả,Trụ dừng,Quận Tân Bình,Hoàng Văn Thụ,106.659071,10.798725,"08, 103, 145, 148, 50, 59, 63-1, 64"
228,601,QPN 011,Siêu thị Big C,Nhà chờ,Quận Phú Nhuận,Hoàng Văn Thụ,106.669559,10.800153,"08, 104, 60-7, 64"
229,602,QTB 039,Công an Quận Tân Bình,Trụ dừng,Quận Tân Bình,Hoàng Văn Thụ,106.657425,10.79717,"08, 103, 145, 148, 50, 59, 63-1, 64"
230,603,QTB 065,Trường Phạm Ngũ Lão,Trụ dừng,Quận Tân Bình,Xuân Hồng,106.654066,10.796032,"08, 103, 145, 148, 30, 50, 59, 64, 65"
231,604,QTB 064,Hội Chợ Triển lãm Tân Bình,Trụ dừng,Quận Tân Bình,Xuân Diệu,106.655145,10.796122,"08, 103, 145, 148, 30, 50, 59, 64"
232,605,QTB 029,Bệnh viện Thống Nhất,Trụ dừng,Quận Tân Bình,Lý Thường Kiệt,106.6528,10.792122,"08, 145, 148, 50, 59, 63-1"
233,606,QTB 066,Cây xăng Đôi,Trụ dừng,Quận Tân Bình,Xuân Hồng,106.652184,10.794256,"08, 103, 145, 148, 30, 50, 59, 64, 65"
234,607,QTB 031,Chợ Tân Bình,Nhà chờ,Quận Tân Bình,Lý Thường Kiệt,106.653584,10.786131,"08, 50, 59, 63-1, 94"
235,610,QTB 032,Siêu thị Nguyễn Kim - CMC Tân Bình,Nhà chờ,Quận Tân Bình,Lý Thường Kiệt,106.654571,10.782695,"08, 50, 59, 63-1, 94"
236,611,Q11 017,Đại Học Bách Khoa(cổng trước),Trụ dừng,Quận 11,Lý Thường Kiệt,106.657829,10.771331,"08, 50, 59, 63-1, 94"
237,615,Q11 020,Chợ Nhật Tảo,Nhà chờ,Quận 11,Lý Thường Kiệt,106.660484,10.761718,"08, 63-1, 94"
238,616,Q5 034,Bệnh viện Hùng Vương,Nhà chờ,Quận 5,Lý Thường Kiệt,106.66221,10.755702,"08, 62, 63-1"
239,617,Q8 110,Tùng Thiện Vương,Trụ dừng,Quận 8,Tùng Thiện Vương,106.656926,10.74483,"08, 25, 45, 46, 47, 62"
240,618,Q8 069,Chùa Pháp Quang,Trụ dừng,Quận 8,Quốc lộ 50,106.656142,10.738642,"08, 25, 45, 47, 59, 62"
241,620,Q11 094,Cây Mai,Biển treo,Quận 11,Hồng Bàng,106.64926,10.753689,"09, 139, 145, 16, 62-1, 62-10, 62-2, 62-6, 62-7, 62-8, 63-1, 81"
242,621,Q6 071,Trường Võ Văn Tần,Biển treo,Quận 6,Phạm Đình Hổ,106.64975,10.752271,"09, 101, 62-1, 62-10, 62-2, 62-6, 62-7, 62-8, 84"
243,622,Q11 095,Lò Siêu,Trụ dừng,Quận 11,Hồng Bàng,106.646787,10.753952,"09, 139, 145, 16, 62-1, 62-10, 62-2, 62-6, 62-7, 62-8, 63-1, 81, 84"
244,623,Q11 098,Tân Hóa,Trụ dừng,Quận 11,Hồng Bàng,106.639089,10.754748,"09, 139, 14, 16, 62-1, 62-10, 62-2, 62-6, 62-7, 62-8, 63-1, 81, 84"
245,625,Q11 097,Chùa Huê Lâm,Ô sơn,Quận 11,Hồng Bàng,106.641229,10.754558,"09, 14, 62-10, 62-6, 62-7"
246,626,Q6 038,Cầu Ông Buông,Biển treo,Quận 6,Hồng Bàng,106.635574,10.754732,"09, 139, 14, 16, 32, 62-1, 62-10, 62-2, 62-7, 62-8, 63-1, 84"
247,630,QBT 014,Bệnh viện Triều An,Trụ dừng,Quận Bình Tân,Kinh Dương Vương,106.616392,10.739675,"09, 102, 151, 25, 39, 41, 60-1, 61, 62-1, 62-10, 62-2, 62-8, 63-1, 84"
248,633,QBT 017,Hoa hồng,Trụ dừng,Quận Bình Tân,Kinh Dương Vương,106.608276,10.729014,"09, 102, 151, 39, 60-1, 61, 62-1, 62-10, 62-2, 62-8, 63-1, 84"
249,635,QBT 019,Thời trang,Trụ dừng,Quận Bình Tân,Kinh Dương Vương,106.603027,10.725466,"09, 102, 60-1, 61, 62-1, 62-10, 62-2, 62-8, 63-1, 84"
250,637,HBC 363,Hưng Nhơn,Nhà chờ,Huyện Bình Chánh,Quốc lộ 1A,106.598791,10.712241,"09, 101, 102, 62-1, 62-10, 62-2, 62-8, 63-1, 84"
251,638,HBC 364,Dương Đình Cúc,Trụ dừng,Huyện Bình Chánh,Quốc lộ 1A,106.598089,10.70706,"09, 101, 102, 62-1, 62-10, 62-2, 63-1, 84"
252,639,HBC 365,Nguyễn Hữu Trí,Trụ dừng,Huyện Bình Chánh,Quốc lộ 1A,106.596415,10.696112,"09, 102, 22, 62-1, 62-10, 62-2, 62-8, 63-1"
253,640,HBC 366,Nút giao Bình Thuận,Trụ dừng,Huyện Bình Chánh,Quốc lộ 1A,106.595101,10.691884,"09, 102, 22, 62-1, 62-10, 62-2, 62-8, 63-1"
254,642,HBC 370,Bùi Thanh Khiết,Trụ dừng,Huyện Bình Chánh,Quốc lộ 1A,106.580247,10.673877,"09, 62-1, 62-10, 62-2, 63-1, 73"
255,644,HBC 371,Trịnh Như Khuê,Trụ dừng,Huyện Bình Chánh,Quốc lộ 1A,106.576653,10.670561,"09, 62-1, 62-10, 62-2, 62-8, 63-1, 73"
256,646,HBC 373,Chợ Bình Chánh,Trụ dừng,Huyện Bình Chánh,Quốc lộ 1A,106.571503,10.66647,"09, 62-1, 62-10, 62-2, 62-8, 63-1, 73"
257,651,HBC 278,Hương lộ 11 - Đinh Đức Thiện,Trụ dừng,Huyện Bình Chánh,Đinh Đức Thiện,106.584538,10.656021,"09, 62-2"
258,695,HBC 269,Đinh Đức Thiện - Hương lộ 11,Trụ dừng,Huyện Bình Chánh,Đinh Đức Thiện,106.584646,10.656101,"09, 62-2"
259,699,HBC 380,Chợ Bình Chánh,Ô sơn,Huyện Bình Chánh,Quốc lộ 1A,106.571835,10.666301,"09, 62-1, 62-10, 62-2, 62-8, 63-1, 73"
260,701,HBC 382,Trịnh Như Khuê,Trụ dừng,Huyện Bình Chánh,Quốc lộ 1A,106.576663,10.670197,"09, 62-1, 62-10, 62-2, 62-8, 63-1, 73"
261,702,HBC 388,Nút giao Bình Thuận,Trụ dừng,Huyện Bình Chánh,Quốc lộ 1A,106.595428,10.691816,"09, 102, 22, 62-1, 62-10, 62-2, 62-8, 63-1"
262,704,HBC 389,Nguyễn Hữu Trí,Trụ dừng,Huyện Bình Chánh,Quốc lộ 1A,106.597059,10.697161,"09, 102, 62-1, 62-10, 62-2, 62-8, 63-1, 84"
263,705,HBC 390,Dương Đình Cúc,Trụ dừng,Huyện Bình Chánh,Quốc lộ 1A,106.598276,10.706422,"09, 101, 102, 62-1, 62-10, 62-2, 62-8, 63-1, 84"
264,706,HBC 392,Hưng Nhơn,Nhà chờ,Huyện Bình Chánh,Quốc lộ 1A,106.599339,10.71202,"09, 101, 102, 62-1, 62-10, 62-2, 62-8, 63-1, 84"
265,708,QBT 001,Cầu An Lạc,Trụ dừng,Quận Bình Tân,Kinh Dương Vương,106.602337,10.724317,"09, 102, 60-1, 61, 62-1, 62-10, 62-2, 62-8, 63-1, 84"
266,709,QBT 003,Hàng Dương,Trụ dừng,Quận Bình Tân,Kinh Dương Vương,106.607605,10.72832,"09, 102, 151, 39, 60-1, 61, 62-1, 62-10, 62-2, 62-8, 63-1, 84"
267,713,QBT 007,Bệnh viện Triều An,Nhà chờ,Quận Bình Tân,Kinh Dương Vương,106.61687,10.739665,"09, 102, 151, 25, 39, 41, 60-1, 61, 62-1, 62-10, 62-2, 62-8, 63-1, 84"
268,719,Q6 040,Ngân hàng ACB,Trụ dừng,Quận 6,Hồng Bàng,106.641245,10.754295,"09, 139, 14, 16, 62-1, 62-10, 62-2, 62-6, 62-7, 62-8, 63-1, 81, 84"
269,720,Q6 050,Cư xá Phú Lâm,Trụ dừng,Quận 6,Kinh Dương Vương,106.630914,10.751217,"09, 139, 14, 32, 62-1, 62-10, 62-2, 62-8, 63-1, 84"
270,721,Q6 041,Trường Nguyễn Đức Cảnh,Nhà chờ,Quận 6,Hồng Bàng,106.644003,10.754021,"09, 139, 145, 16, 62-1, 62-10, 62-2, 62-6, 62-7, 62-8, 63-1, 81, 84"
271,723,Q6 042,Chùa Nam Phổ Đà,Trụ dừng,Quận 6,Hồng Bàng,106.645955,10.753789,"09, 139, 145, 16, 62-1, 62-10, 62-2, 62-6, 62-7, 62-8, 63-1, 81, 84"
272,724,Q6 039,Cầu Ông Buông,Trụ dừng,Quận 6,Hồng Bàng,106.637995,10.754548,"09, 139, 14, 16, 62-1, 62-10, 62-2, 62-6, 62-7, 62-8, 63-1, 81, 84"
273,725,BX 46,Bến xe Miền Tây,Bến xe,Quận Bình Tân,Kinh Dương Vương,106.619438,10.739486,"10, 102, 139, 14, 148, 151, 32, 39, 41, 60-1, 91"
274,726,Q1 073,Đền Trần Hưng Đạo,Trụ dừng,Quận 1,Võ Thị Sáu,106.695238,10.791369,"10, 18, 91"
275,727,Q3 103,Trần Quốc Thảo,Trụ dừng,Quận 3,Võ Thị Sáu,106.686242,10.782294,"10, 30, 91"
276,728,Q6 024,CoopMart ,Trụ dừng,Quận 6,Hậu Giang,106.643198,10.749815,"10, 25, 61"
277,729,Q6 036,CoopMart,Trụ dừng,Quận 6,Hậu Giang,106.64283,10.74971,"10, 25, 61"
278,730,QBTH 063,Cầu Điện Biên Phủ,Trụ dừng,Quận Bình Thạnh,Điện Biên Phủ,106.702518,10.795115,"10, 150, 45, 93"
279,731,Q3 024,Cách Mạng tháng 8,Nhà chờ,Quận 3,Điện Biên Phủ,106.684145,10.777009,"10, 150, 30, 91"
280,732,BX 63,Bến xe Củ Chi,Bến xe,Huyện Củ Chi,Quốc lộ 22,106.482099,10.971617,"100, 107, 126, 13, 62-3, 70-1, 70-2, 74, 79, 87, 94"
281,735,HCC 021,Công ty phân bón Sinh hóa Củ Chi,Trụ dừng,Huyện Củ Chi,Quốc lộ 22,106.469455,10.978179,"100, 107, 70-1, 70-2"
282,738,HCC 020,Trạm xăng,Ô sơn,Huyện Củ Chi,Quốc lộ 22,106.473129,10.976133,"100, 107, 70-1, 70-2, 79"
283,739,QCCT028,Chợ Phước Thạnh,Trụ dừng,Huyện Củ Chi,Quốc lộ 22,106.428146,11.005767,"100, 107, 70-1, 70-2"
284,741,HCC 022,Trạm xăng Phước Hiệp 1,Trụ dừng,Huyện Củ Chi,Quốc lộ 22,106.461232,10.98305,"100, 107, 70-1, 70-2"
285,745,HCC 026,UBND xã Phước Thạnh,Nhà chờ,Huyện Củ Chi,Quốc lộ 22,106.431969,11.00463,"100, 107, 70-1, 70-2"
286,759,Q6 017,Metro Bình Phú,Trụ dừng,Quận 6,Đường Số 26,106.630994,10.741673,"101, 61"
287,770,Q8 143,Chợ Kiến Đức,Ô sơn,Quận 8,An Dương Vương,106.618924,10.715794,"101, 15"
288,771,BX 100,Cầu Tân Thái,Bến xe,Huyện Củ Chi,Tỉnh lộ 7,106.36434,10.983213,100
289,784,HCC 030,ấp cây trôm,Trụ dừng,Huyện Củ Chi,Quốc lộ 22,106.44487,10.996617,"100, 107, 70-1, 70-2"
290,785,HCC 033,Cây xăng Tài Lộc 3,Nhà chờ,Huyện Củ Chi,Quốc lộ 22,106.461033,10.982855,"100, 107, 70-1, 70-2"
291,787,HCC 035,Ngã 3 Nguyễn Thị Rành,Trụ dừng,Huyện Củ Chi,Quốc lộ 22,106.472717,10.976109,"100, 107, 70-1, 70-2, 79"
292,790,HCC 028,Chợ Phước Thạnh,Nhà chờ,Huyện Củ Chi,Quốc lộ 22,106.428069,11.005567,"100, 107, 70-1, 70-2"
293,796,HCC 034,Công ty phân bón sinh hóa Củ Chi,Nhà chờ,Huyện Củ Chi,Quốc lộ 22,106.469632,10.977784,"100, 107, 70-1, 70-2"
294,806,Q6 001,Lý Chiêu Hoàng,Trụ dừng,Quận 6,An Dương Vương,106.623715,10.740239,"101, 61"
295,807,Q8 077,Chợ Kiến Đức,Ô sơn,Quận 8,An Dương Vương,106.619074,10.715667,"101, 15"
296,811,Q6 020,Metro Bình Phú,Trụ dừng,Quận 6,Đường Số 26,106.63086,10.741578,"101, 61"
297,819,HBC 030,Khu dân cư 13A,Trụ dừng,Huyện Bình Chánh,Nguyễn Văn Linh,106.637893,10.705109,"102, 22, 45"
298,822,HBC 031,Đại học Văn Hiến (HungHau Campus),Ô sơn,Huyện Bình Chánh,Nguyễn Văn Linh,106.643343,10.709337,"102, 22, 45"
299,823,HBC 034,Quốc lộ 50,Trụ dừng,Huyện Bình Chánh,Nguyễn Văn Linh,106.654356,10.717971,"102, 22, 45"
300,832,HBC 040,Phúc Minh,Ô sơn,Huyện Bình Chánh,Nguyễn Văn Linh,106.680121,10.727574,"102, 34"
301,835,Q7 095,Phòng cháy chữa cháy Quận 7,Nhà chờ,Quận 7,Nguyễn Văn Linh,106.704031,10.728106,"102, 123, 124, 34, 68"
302,840,Q7 100,Cầu Đa Khoa,Trụ dừng,Quận 7,Nguyễn Văn Linh,106.721798,10.738937,"102, 31"
303,843,Q7 104,Khu chế xuất Tân Thuận,Trụ dừng,Quận 7,Nguyễn Văn Linh,106.727414,10.752498,"20, 34, 68, 75"
304,848,Q4 031,Cảng Sài Gòn,Nhà chờ,Quận 4,Nguyễn Tất Thành,106.7155,10.758443,"102, 20, 31, 34, 75"
305,853,Q1 001,Calmette,Trụ dừng,Quận 1,Calmette,106.699219,10.767768,"102, 123, 124, 34, 38, 44"
306,854,Q1 002,Lê Thị Hồng Gấm,Trụ dừng,Quận 1,Calmette,106.698334,10.769178,"123, 124, 44"
307,855,Q4 027,Bưu Điện Quận 4,Trụ dừng,Quận 4,Nguyễn Tất Thành,106.70763,10.76385,"102, 20, 31, 34, 75"
308,859,Q7 080,Cầu Tân Thuận 2,Trụ dừng,Quận 7,Nguyễn Văn Linh,106.723927,10.752424,"102, 31, 34, 68, 75"
309,863,Q7 085,Nguyễn Thị Thập,Trụ dừng,Quận 7,Nguyễn Văn Linh,106.721444,10.739585,"102, 31"
310,869,Q7 088,Bệnh viện Việt Pháp,Trụ dừng,Quận 7,Nguyễn Văn Linh,106.718912,10.731063,"102, 34"
311,872,Q7 090,Sky Garden,Trụ dừng,Quận 7,Nguyễn Văn Linh,106.7049,10.729234,"102, 123, 124, 34, 68"
312,875,HBC 003,Phúc Minh,Trụ dừng,Huyện Bình Chánh,Nguyễn Văn Linh,106.679472,10.728486,"102, 34"
313,879,HBC 008,Sau Quốc lộ 50,Trụ dừng,Huyện Bình Chánh,Nguyễn Văn Linh,106.654415,10.718972,"102, 22, 45"
314,882,HBC 013,Trịnh Quang Nghị,Trụ dừng,Huyện Bình Chánh,Nguyễn Văn Linh,106.634567,10.703602,"102, 22, 45"
315,897,Q5 079,Tạ Uyên,Trụ dừng,Quận 5,Tạ Uyên,106.65383,10.754606,"05, 103, 23"
316,898,Q10 058,Đại học Bách Khoa (cổng sau),Nhà chờ,Quận 10,Tô Hiến Thành,106.661057,10.773046,"103, 38, 50, 59, 69"
317,900,Q10 059,Bệnh viện Trưng Vương,Nhà chờ,Quận 10,Tô Hiến Thành,106.658913,10.770922,"103, 38, 50, 59, 69"
318,902,Q10 057,Ngân hàng Quân Đội,Trụ dừng,Quận 10,Tô Hiến Thành,106.663017,10.775549,"103, 38, 59, 69"
319,906,QTB 054,Bắc Hải,Trụ dừng,Quận Tân Bình,Cách Mạng Tháng Tám,106.663727,10.787486,"103, 30, 65"
320,908,QTB 058,Bệnh viện Thống Nhất,Nhà chờ,Quận Tân Bình,Cách Mạng Tháng Tám,106.653991,10.792649,"103, 13, 30, 65"
321,911,QTB 100,Quán Vườn Dừa,Trụ dừng,Quận Tân Bình,Phan Đình Giót,106.664909,10.803641,"103, 109, 148, 152, 50, 59, 60-7, 63-1, 72-1"
322,921,QGV 155 ,Siêu thị Văn Lang,Trụ dừng,Quận Gò Vấp,Quang Trung,106.679209,10.826846,"103, 18, 24, 55"
323,925,QGV 161,City Mart,Trụ dừng,Quận Gò Vấp,Quang Trung,106.66104,10.835888,"103, 18, 24, 55"
324,932,Q12 105,Ngã tư Tân Thới Hiệp,Trụ dừng,Quận 12,Quốc lộ 1A,106.651199,10.861881,"103, 33, 60-1, 60-5, 61-3"
325,933,Q12 107,Bãi xe Tri Ân,Trụ dừng,Quận 12,Quốc lộ 1A,106.657127,10.861651,"103, 146, 33, 60-1, 60-5, 61-3"
326,937,Q12 110,Cây xăng Thạnh Xuân,Trụ dừng,Quận 12,Quốc lộ 1A,106.671882,10.861577,"103, 32, 33, 59, 60-1, 60-5, 61-3"
327,942,Q12 109,Gò Sao,Trụ dừng,Quận 12,Quốc lộ 1A,106.666458,10.861503,"103, 146, 33, 60-1, 60-5, 61-3"
328,944,Q12 112,Bến xe Ngã tư Ga,Nhà chờ,Quận 12,Quốc lộ 1A,106.678078,10.861472,"103, 32, 33, 59, 60-1, 60-5, 61-3"
329,946,BX37,Bến xe Ngã tư Ga,Bến xe,Quận 12,Quốc lộ 1A,106.67835998535156,10.862156867980955,"103, 32, 58, 59"
330,955,BX 65,Bố Heo,Bến xe,Huyện Củ Chi,Hương lộ 2,106.421696,11.061848,"107, 70-5"
331,963,HCC 037,Bến xe Củ Chi,Trụ dừng,Huyện Củ Chi,Quốc lộ 22,106.48049,10.972091,"100, 107, 70-1, 70-2, 79"
332,965,Q12 073,Trường Mầm non Ngôi Nhà Trẻ Thơ,Trụ dừng,Quận 12,Quốc lộ 1A,106.667461,10.861877,"103, 146, 33, 60-1, 60-5, 61-3"
333,966,Q12 075,Đá hoa cương Chí Thành,Nhà chờ,Quận 12,Quốc lộ 1A,106.657183,10.861988,"103, 146, 33, 60-1, 60-5, 61-3"
334,969,Q12 076,Quận ủy Quận 12,Trụ dừng,Quận 12,Quốc lộ 1A,106.653428,10.862114,"103, 33, 60-1, 60-5, 61-3"
335,973,QGV 061,Nhà thờ Nữ Vương Hòa Bình,Trụ dừng,Quận Gò Vấp,Lê Đức Thọ,106.653825,10.856836,"103, 36"
336,976,Q12 071,Khu QLGTĐT số 3,Trụ dừng,Quận 12,Quốc lộ 1A,106.674564,10.861967,"103, 32, 33, 59, 60-1, 60-5, 61-3"
337,991,QGV 184,Siêu thị Văn Lang,Nhà chờ,Quận Gò Vấp,Quang Trung,106.678813,10.826757,"103, 18, 24, 55"
338,995,QTB 012,Trường Ngô Sỹ Liên,Nhà chờ,Quận Tân Bình,Trường Sơn,106.664673,10.810257,"103, 109, 152, 60-7, 63-1"
339,996,QTB 059,Bệnh viện Thống Nhất,Nhà chờ,Quận Tân Bình,Cách Mạng Tháng Tám,106.654131,10.792391,"103, 13, 30, 65"
340,999,QTB 109,Trần Quốc Hoàn,Nhà chờ,Quận Tân Bình,Trần Quốc Hoàn,106.663925,10.803644,"103, 109, 148, 152, 50, 59, 60-7, 63-1"
341,1003,Q10 083,Công viên Lê Thị Riêng,Nhà chờ,Quận 10,Cách Mạng Tháng Tám,106.665777,10.786236,"103, 13, 30, 65"
342,1007,Q10 062,Ngân hàng Quân Đội,Trụ dừng,Quận 10,Tô Hiến Thành,106.662819,10.775531,"103, 38, 59, 69"
343,1008,Q10 060,Bệnh viện Trưng Vương,Nhà chờ,Quận 10,Tô Hiến Thành,106.659096,10.771244,"103, 38, 50, 59, 69"
344,1010,Q5 022,Bến xe Chợ Lớn,Trụ dừng,Quận 5,Hồng Bàng,106.652559,10.753657,"139, 23, 63-1"
345,1013,Q10 061,Đại học Bách Khoa (cổng sau),Nhà chờ,Quận 10,Tô Hiến Thành,106.661125,10.773322,"103, 38, 50, 59, 69"
346,1015,Q11 083,Trạm Trần Quý - Tạ Uyên,Trụ dừng,Quận 11,Tạ Uyên,106.653492,10.758068,"103, 23"
347,1017,Q5 080,Tạ Uyên,Trụ dừng,Quận 5,Tạ Uyên,106.653696,10.755201,"05, 103, 23"
348,1020,Q11 040,Tòa án nhân dân Quận 11,Trụ dừng,Quận 11,Ông Ích Khiêm,106.643082,10.76659,"23, 62, 69"
349,1021,Q1 140,Nguyễn Trãi,Nhà chờ,Quận 1,Nguyễn Văn Cừ,106.683769,10.760314,"139, 45, 56"
350,1022,BX91,Bến xe buýt Đầm Sen,Bến xe,Quận 11,Hòa Bình,106.639733,10.767834,"15, 38, 64"
351,1023,Q11 034,Chợ Phú Thọ,Trụ dừng,Quận 11,Lãnh Binh Thăng,106.653798,10.762522,"23, 62"
352,1029,Q11 043,Bãi xe buýt Đầm Sen,Ô sơn,Quận 11,Hòa Bình,106.641176,10.767196,"15, 23, 38, 62, 69"
353,1031,QTD 084,Đầu đường Lê Văn Chí,Trụ dừng,Quận Thủ Đức,Lê Văn Chí,106.774025,10.850485,"104, 53, 89"
354,1033,QTD 085,Nhà máy nước Thủ Đức,Nhà chờ,Quận Thủ Đức,Lê Văn Chí,106.773173,10.853954,"104, 89"
355,1040,QTD 171,ĐH Kinh tế Luật,Nhà chờ,Quận Thủ Đức,Quốc lộ 1,106.776724,10.869306,"104, 19, 33, 50, 60-1, 93"
356,1042,QTD 173,ĐH Nông Lâm,Nhà chờ,Quận Thủ Đức,Quốc lộ 1,106.787277,10.867122,"104, 19, 33, 50, 60-1, 60-2, 93"
357,1043,Q11 047,Ngã tư Hòa Bình,Trụ dừng,Quận 11,Hòa Bình,106.641571,10.76698,"15, 23, 38, 62, 69"
358,1045,Q11 042,Ông Ích Khiêm,Trụ dừng,Quận 11,Ông Ích Khiêm,106.645157,10.765737,"23, 62, 69"
359,1050,Q5 042,Chợ Thiếc,Trụ dừng,Quận 5,Nguyễn Chí Thanh,106.657616,10.757568,"05, 62"
360,1051,Q5 075,Bộ Công an,Trụ dừng,Quận 5,Nguyễn Văn Cừ,106.683453,10.760672,"139, 45, 56"
361,1052,Q1 150,Báo An Ninh Thế Giới,Trụ dừng,Quận 1,Nguyễn Trãi,106.685104,10.759869,"45, 46, 56"
362,1053,Q1 151,Nhà Khách Bộ Công An,Trụ dừng,Quận 1,Nguyễn Trãi,106.686394,10.762006,"45, 46, 56"
363,1054,BX 18,Phú Xuân,Bến xe,Quận 7,Đường số 15B,106.73373,10.70071,139
364,1055,HNB 001,Chợ Phú Xuân,Trụ dừng,Huyện Nhà Bè,Huỳnh Tấn Phát,106.73817,10.701088,"110, 20, 75"
365,1057,Q7 169,Khu dân cư Kỹ Nguyên,Trụ dừng,Quận 7,Phạm Hữu Lầu,106.735198,10.704788,"110, 139"
366,1058,HNB 003,Công an Thị trấn Nhà Bè,Trụ dừng,Huyện Nhà Bè,Huỳnh Tấn Phát,106.739666,10.695869,"110, 20, 75"
367,1064,HNB 010,Ngã Ba Bờ Đăng,Trụ dừng,Huyện Nhà Bè,Huỳnh Tấn Phát,106.753196,10.6784,"110, 20, 75"
368,1078,HNB 112,Vòng xoay Long Thới,Trụ dừng,Huyện Nhà Bè,Nguyễn Văn Tạo,106.724791,10.667366,"110, 72"
369,1088,BX 71,Cầu Kênh Lộ,Bến xe,Huyện Nhà Bè,Nguyễn Văn Tạo,106.742727,10.598307,"110, 72"
370,1094,Q1 027,Ba Son,Ô sơn,Quận 1,Tôn Đức Thắng,106.706922,10.781804,"44, 56, 88"
371,1095,Q1 028,TTTM Sài Gòn,Ô sơn,Quận 1,Tôn Đức Thắng,106.704363,10.784286,"30, 44"
372,1097,Q9 227,Công ty Nam Hàn,Trụ dừng,Quận 9,Quốc lộ 1,106.816818,10.884067,"150, 60-1, 60-2, 60-3, 60-7"
373,1101,QTD 181,ĐH Nông Lâm,Nhà chờ,Quận Thủ Đức,Quốc lộ 1,106.787265,10.867404,"104, 19, 33, 50, 53, 60-1, 93"
374,1103,QTD 183,Đại học Kinh tế -Luật,Nhà chờ,Quận Thủ Đức,Quốc lộ 1,106.77726,10.869427,"104, 19, 33, 50, 60-1, 93"
375,1108,QTD 092,Nhà máy nước Thủ Đức,Nhà chờ,Quận Thủ Đức,Lê Văn Chí,106.773216,10.853545,"104, 89"
376,1110,QTD 093,Đầu đường Lê Văn Chí,Trụ dừng,Quận Thủ Đức,Lê Văn Chí,106.773994,10.850766,"104, 53, 89"
377,1113,QTD 077,Ngã tư Thủ Đức,Nhà chờ,Quận Thủ Đức,Xa Lộ Hà Nội,106.77299,10.84828,"10, 104, 150, 30, 52, 55, 60-3, 60-7, 67"
378,1115,Q12 122,Bến xe An Sương,Trụ dừng,Quận 12,Quốc lộ 22,106.613517,10.845803,"04, 104, 122, 13, 145, 24, 27, 33, 60-5, 62-5, 65, 71, 85"
379,1116,Q12 123,Bến xe An Sương,Trụ dừng,Quận 12,Quốc lộ 22,106.613361,10.846035,"24, 62-5, 74"
380,1131,HNB 047,Hàng Tre,Trụ dừng,Huyện Nhà Bè,Nguyễn Văn Tạo,106.726213,10.663465,"110, 72"
381,1141,HNB 020,Công Tiến Thọ,Trụ dừng,Huyện Nhà Bè,Huỳnh Tấn Phát,106.75071,10.679507,"110, 20, 75"
382,1148,HNB 026,Nha khoa Khánh Minh,Trụ dừng,Huyện Nhà Bè,Huỳnh Tấn Phát,106.738996,10.698273,"110, 20, 75"
383,1149,Q7 168,Khu dân cư Kỹ Nguyên,Trụ dừng,Quận 7,Phạm Hữu Lầu,106.735246,10.704941,"110, 139"
384,1151,Q12 125,Cây xăng Quân Đội,Trụ dừng,Quận 12,Quốc lộ 22,106.611274,10.84936,"122, 145, 24, 62-5, 71, 74, 85"
385,1152,Q12 127,Trung tâm Văn hóa Quận 12,Nhà chờ,Quận 12,Quốc lộ 22,106.607863,10.85466,"122, 13, 145, 24, 62-5, 71, 74, 85, 94"
386,1155,HHM 025,Trường học Tân Xuân,Trụ dừng,Huyện Hóc Môn,Quốc lộ 22,106.599349,10.866782,"122, 62-5, 74, 85, 94"
387,1156,HHM 024,Ngã 3 Củ Cải,Trụ dừng,Huyện Hóc Môn,Quốc lộ 22,106.602697,10.862014,"122, 13, 62-5, 74, 85"
388,1157,HHM 028,Ngã tư Giếng Nước,Trụ dừng,Huyện Hóc Môn,Quốc lộ 22,106.591748,10.877482,"122, 13, 62-5, 74, 85"
389,1160,HHM 027,Ngã 3 Bùi Môn,Trụ dừng,Huyện Hóc Môn,Quốc lộ 22,106.596147,10.871397,"122, 13, 62-5, 74, 85, 94"
390,1161,HHM 004,Thị trấn Hóc Môn,Trụ dừng,Huyện Hóc Môn,Bà Triệu,106.596238,10.887902,"122, 62-5, 85"
391,1164,HHM 003,Trường mầm non 23-11,Trụ dừng,Huyện Hóc Môn,Bà Triệu,106.595213,10.884952,"122, 62-5, 85"
392,1185,BX 62,Bến xe buýt Tân Quy,Bến xe,Huyện Củ Chi,"Tỉnh lộ 8, Củ Chi",106.578176,10.984251,"122, 70"
393,1186,Q9 230,Công ty TNHH Thuận Thành Tâm,Trụ dừng,Quận 9,Quốc lộ 1,106.822804,10.892685,"150, 60-1, 60-2, 60-3, 60-7"
394,1187,Q9 232,Công ty Cp Đức Khải,Trụ dừng,Quận 9,Quốc lộ 1,106.812918,10.879241,"150, 60-1, 60-2, 60-3, 60-7"
395,1191,Q1 173,Hồ Huấn Nghiệp,Trụ dừng,Quận 1,Đồng Khởi,106.704583,10.774611,"123, 124"
396,1193,Q4 009,Trường THCS Vân Đồn,Trụ dừng,Quận 4,Hoàng Diệu,106.701488,10.761879,"123, 124, 31, 38, 44"
397,1195,Q4 008,Chùa Anh Linh,Trụ dừng,Quận 4,Hoàng Diệu,106.703183,10.76308,"123, 124, 31, 38, 44"
398,1196,Q4 010,Hoàng Diệu,Trụ dừng,Quận 4,Hoàng Diệu,106.699836,10.760735,"123, 124, 139, 140, 38, 46, 72"
399,1197,Q7 068,Cầu Kinh Tẻ,Nhà chờ,Quận 7,Nguyễn Hữu Thọ,106.70203,10.747496,"123, 124, 139, 140, 38, 72"
400,1201,Q7 069,Ngã 3 Tân Quy,Nhà chờ,Quận 7,Nguyễn Hữu Thọ,106.701472,10.744134,"123, 124, 140, 68, 72"
401,1202,Q7 071,Đại học Cảnh sát,Trụ dừng,Quận 7,Nguyễn Hữu Thọ,106.699852,10.734573,"123, 124, 31, 68, 72"
402,1203,Q7 178,Trường Nam Sài Gòn,Trụ dừng,Quận 7,Nguyễn Đức Cảnh,106.709948,10.722751,"123, 124, 68, D2"
403,1204,Q7 073,Trà My,Trụ dừng,Quận 7,Nguyễn Hữu Thọ,106.700243,10.729419,"123, 124, 68, 72"
404,1230,HHM 048,Ngã tư giếng nước,Trụ dừng,Huyện Hóc Môn,Quốc lộ 22,106.591684,10.877023,"122, 13, 62-5, 74, 85"
405,1231,HHM 050,Ngã 3 Bùi Môn,Trụ dừng,Huyện Hóc Môn,Quốc lộ 22,106.596758,10.869954,"122, 13, 62-5, 74, 85"
406,1234,HHM 053,Ngã 3 Củ Cải,Nhà chờ,Huyện Hóc Môn,Quốc lộ 22,106.603324,10.860602,"122, 13, 62-5, 74, 85, 94"
407,1239,HHM 058,Bến xe An Sương,Trụ dừng,Huyện Hóc Môn,Quốc lộ 22,106.613522,10.845187,"04, 122, 13, 145, 24, 33, 60-5, 62-5, 65, 71, 74, 85, 94"
408,1240,Q7 165,Mỹ Thái 2,Trụ dừng,Quận 7,Nguyễn Lương Bằng,106.726738,10.721022,"124, 139, D3"
409,1241,Q7 166,Trường Nam Sài Gòn,Trụ dừng,Quận 7,Nguyễn Lương Bằng,106.724174,10.725255,"124, 139, D3"
410,1243,Q7 182,Trần Văn Trà,Trụ dừng,Quận 7,Trần Văn Trà,106.720993,10.724101,"124, 68, D2"
411,1244,Q7 074,Tra My,Trụ dừng,Quận 7,Nguyễn Hữu Thọ,106.700479,10.729461,"123, 124, 68, 72"
412,1245,Q7 076,Đại học Cảnh sát,Nhà chờ,Quận 7,Nguyễn Hữu Thọ,106.700002,10.733983,"123, 124, 31, 68, 72"
413,1247,Q7 077,Siêu thị Lotte,Nhà chờ,Quận 7,Nguyễn Hữu Thọ,106.701193,10.741214,"123, 124, 140, 68, 72"
414,1250,Q4 016,Chung cư Tân Vĩnh,Trụ dừng,Quận 4,Khánh Hội,106.699315,10.758727,"123, 124, 139, 140, 38, 72"
415,1251,Q7 079,Cầu Kinh Tẻ,Nhà chờ,Quận 7,Nguyễn Hữu Thọ,106.702266,10.746832,"123, 124, 139, 140, 38, 72"
416,1252,Q4 012,Trường THCS Vân Đồn,Nhà chờ,Quận 4,Hoàng Diệu,106.701724,10.761768,"123, 124, 31, 38, 44"
417,1253,Q4 011,Hoàng Diệu,Trụ dừng,Quận 4,Hoàng Diệu,106.699321,10.760082,"123, 124, 139, 140, 38, 46, 72"
418,1254,Q4 013,Chùa Anh Linh,Trụ dừng,Quận 4,Hoàng Diệu,106.703414,10.763006,"123, 124, 31, 38, 44"
419,1256,Q1 195,Chợ Cũ,Nhà chờ,Quận 1,Hàm Nghi,106.701998,10.770811,"01, 03, 04, 152, 18, 19, 31, 36, 45, 52, 56, 75, 88, 93"
420,1257,Q7 177,Trường Nam Sài Gòn,Trụ dừng,Quận 7,Nguyễn Đức Cảnh,106.709899,10.722588,"124, 68"
421,1258,Q7 156,Mỹ Thái 2,Trụ dừng,Quận 7,Nguyễn Lương Bằng,106.726454,10.720885,"124, 139, D3"
422,1260,Q7 181,Trần Văn Trà,Trụ dừng,Quận 7,Trần Văn Trà,106.72125,10.724074,"124, 68, D2"
423,1261,Q7 155,Trường Nam Sài Gòn,Trụ dừng,Quận 7,Nguyễn Lương Bằng,106.723793,10.725118,"124, 139, D3"
424,1290,HCC 243,Cầu Bà Bếp,Trụ dừng,Huyện Củ Chi,Tỉnh lộ 8,106.627888,10.973955,"126, 58"
425,1292,HCC 245,Ngã 3 Bình Mỹ,Trụ dừng,Huyện Củ Chi,Tỉnh lộ 8,106.638971,10.973266,"126, 58"
426,1294,BX 66,Bến xe Bình Mỹ,Bến xe,Huyện Củ Chi,"Tỉnh lộ 8, Củ Chi",106.643794,10.977542,126
427,1296,Q3 007,Bệnh viện Mắt - Bình Dân - Da Liễu,Trụ dừng,Quận 3,Cách Mạng Tháng Tám,106.684467,10.776461,"13, 65"
428,1297,Q1 003,Trống Đồng,Nhà chờ,Quận 1,Cách Mạng Tháng Tám,106.690813,10.773046,"13, 28, 38, 65, 69"
429,1298,Q3 010,Ngã Ba Chí Hòa,Trụ dừng,Quận 3,Cách Mạng Tháng Tám,106.676345,10.780703,"13, 30, 65"
430,1299,Q3 009,Công trường Dân Chủ,Trụ dừng,Quận 3,Cách Mạng Tháng Tám,106.680481,10.778516,"13, 30, 65"
431,1300,Q3 014,Công viên Lê Thị Riêng,Trụ dừng,Quận 3,Cách Mạng Tháng Tám,106.66693,10.785814,"13, 30, 65"
432,1301,QTB 069,Ngã ba Hoàng Hoa Thám,Nhà chờ,Quận Tân Bình,Trường Chinh,106.647747,10.796053,"13, 30, 64, 65, 94"
433,1302,QTB 073,Ngã tư Tân Kỳ Tân Quý,Biển treo,Quận Tân Bình,Trường Chinh,106.635629,10.804732,"13, 23, 27, 62, 65, 94"
434,1303,HHM 030,Ngã tư Hóc Môn,Trụ dừng,Huyện Hóc Môn,Quốc lộ 22,106.586732,10.884615,"13, 24, 74, 94"
435,1304,HHM 037,Công ty thoát nước đô thị,Trụ dừng,Huyện Hóc Môn,Quốc lộ 22,106.567812,10.911664,"74, 94"
436,1305,HHM 034,Ngã 3 Hồng Châu,Trụ dừng,Huyện Hóc Môn,Quốc lộ 22,106.576191,10.899733,"13, 74, 94"
437,1306,HCC 006,Trường Tân Phú Trung,Nhà chờ,Huyện Củ Chi,Quốc lộ 22,106.540335,10.939433,"13, 74, 94"
438,1307,HCC 003,Chợ chiều Tân Phú Trung,Trụ dừng,Huyện Củ Chi,Quốc lộ 22,106.553714,10.931343,"13, 74, 94"
439,1308,HCC 012,Công ty Sài Gòn Cáp,Trụ dừng,Huyện Củ Chi,Quốc lộ 22,106.509834,10.95705,"74, 94"
440,1309,HCC 009,Ngã tư Quán đôi,Trụ dừng,Huyện Củ Chi,Quốc lộ 22,106.524635,10.947133,"13, 74, 94"
441,1310,HCC 247,Cầu Phú Cường,Trụ dừng,Huyện Củ Chi,"Tỉnh lộ 8, Củ Chi",106.643783,10.977531,"126, 61-7"
442,1311,HCC 017,Cầu vượt Củ Chi,Trụ dừng,Huyện Củ Chi,Quốc lộ 22,106.488319,10.96765,"74, 94"
443,1315,QCCT350,Ngã 3 Bình Mỹ,Trụ dừng,Huyện Củ Chi,"Tỉnh lộ 8, Củ Chi",106.638153,10.97335,"126, 58"
444,1317,QCCT353,Cổng A Khu công nghiệp Đông Nam,Trụ dừng,Huyện Củ Chi,"Tỉnh lộ 8, Củ Chi",106.623983,10.975404,"126, 58"
445,1346,Q7 120,Đường số 15,Trụ dừng,Quận 7,Lê Văn Lương,106.704216,10.744576,"139, 140, 38"
446,1348,Q7 110,Nguyễn Thị Thập,Trụ dừng,Quận 7,Nguyễn Thị Thập,106.704696,10.739607,"139, 31, 38"
447,1351,Q7 113,Mai Văn Vĩnh,Trụ dừng,Quận 7,Nguyễn Thị Thập,106.714003,10.738368,"139, 31, 34"
448,1352,Q7 114,Lâm Văn Bền,Trụ dừng,Quận 7,Nguyễn Thị Thập,106.717522,10.738152,"139, 31, 34"
449,1355,Q7 154,Tân Trào,Trụ dừng,Quận 7,Nguyễn Lương Bằng,106.721873,10.728222,"139, 68"
450,1362,Q7 019,Trường Ngô Quyền,Trụ dừng,Quận 7,Huỳnh Tấn Phát,106.736904,10.712974,"139, 20, 75"
451,1364,Q7 023,Phạm Hữu Lầu,Trụ dừng,Quận 7,Huỳnh Tấn Phát,106.737649,10.705547,"139, 20, 75"
452,1365,Q7 026,Trường Ngô Quyền,Trụ dừng,Quận 7,Huỳnh Tấn Phát,106.737177,10.712795,"139, 20, 75"
453,1371,Q7 167,Tân Trào,Trụ dừng,Quận 7,Nguyễn Lương Bằng,106.722114,10.728538,"139, 68"
454,1372,Q7 163,Mỹ Khang,Trụ dừng,Quận 7,Nguyễn Lương Bằng,106.730096,10.715599,"139, D3"
455,1373,Q7 106,Lâm Văn Bền,Trụ dừng,Quận 7,Nguyễn Thị Thập,106.717485,10.738384,"139, 31, 34"
456,1375,Q7 152,Bệnh viện Tim Tâm Đức,Trụ dừng,Quận 7,Nguyễn Lương Bằng,106.71904,10.733488,"139, 34"
457,1379,Q1 120,Cầu Ông Lãnh,Nhà chờ,Quận 1,Nguyễn Thái Học,106.696612,10.766253,"139, 140, 31, 46, 72"
458,1380,Q7 130,Lotte Mark,Trụ dừng,Quận 7,Lê Văn Lương,106.70369,10.740208,"139, 140, 38"
459,1384,HCC 049,trường Tân Phú Trung,Nhà chờ,Huyện Củ Chi,Quốc lộ 22,106.540223,10.93918,"13, 74, 94"
460,1387,HCC 038,Trường trung học cơ sở Củ Chi,Nhà chờ,Huyện Củ Chi,Quốc lộ 22,106.48903,10.967041,"13, 74, 94"
461,1388,HHM 039,Cầu An Hạ,Nhà chờ,Huyện Hóc Môn,Quốc lộ 22,106.564212,10.916262,"13, 74, 94"
462,1389,HHM 040,Công ty thoát nước đô thị,Trụ dừng,Huyện Hóc Môn,Quốc lộ 22,106.567576,10.911485,"74, 94"
463,1390,HHM 042,Ngã 3 Hồng Châu,Trụ dừng,Huyện Hóc Môn,Quốc lộ 22,106.575891,10.899638,"13, 74, 94"
464,1391,HCC 051,Mũi tàu Tỉnh lộ 2,Trụ dừng,Huyện Củ Chi,Quốc lộ 22,106.549798,10.93454,"74, 94"
465,1392,QTB 083,Ngã ba Hoàng Hoa Thám,Trụ dừng,Quận Tân Bình,Trường Chinh,106.646218,10.796606,"13, 30, 64, 65"
466,1393,HHM 056,Ngã tư Trung Chánh,Nhà chờ,Huyện Hóc Môn,Quốc lộ 22,106.608152,10.853595,"122, 145, 24, 62-5, 71, 74, 85, 94"
467,1394,Q10 088,Công trường Dân Chủ,Nhà chờ,Quận 10,Cách Mạng Tháng Tám,106.680706,10.778205,"13, 30, 65"
468,1395,HHM 046,Ngã tư Hóc Môn,Trụ dừng,Huyện Hóc Môn,Quốc lộ 22,106.587263,10.883308,"13, 74, 94"
469,1396,Q1 004,Trống Đồng,Trụ dừng,Quận 1,Cách Mạng Tháng Tám,106.691499,10.772345,"13, 28, 38, 65, 69"
470,1397,Q10 031,Bệnh viện Nhi Đồng 1,Trụ dừng,Quận 10,Lý Thái Tổ,106.67038,10.767765,"10, 14, 27, 38, 69"
471,1399,Q10 086,Chùa Bửu Đà,Trụ dừng,Quận 10,Cách Mạng Tháng Tám,106.675063,10.78124,"13, 30, 65"
472,1400,Q3 016,Bệnh viện Mắt - Bình Dân - Da Liễu,Trụ dừng,Quận 3,Cách Mạng Tháng Tám,106.684338,10.776202,"13, 65"
473,1401,Q1 122,Nguyễn Thị Nghĩa,Trụ dừng,Quận 1,Nguyễn Thị Nghĩa,106.693588,10.770854,"152, 31, 38, 56, 69"
474,1403,BX44,Bến xe Miền Đông,Bến xe,Quận Bình Thạnh,Đinh Bộ Lĩnh,106.711294,10.814733,"14, 146, 24, 43, 45, 60-3, 64, 67"
475,1408,QBTH 071,Ngã năm Liệt Sĩ,Trụ dừng,Quận Bình Thạnh,Nguyễn Xí,106.710624,10.81204,"14, 19, 45, 64"
476,1410,QBTH 131,Chợ Phường 25,Trụ dừng,Quận Bình Thạnh,Ung Văn Khiêm,106.714674,10.808304,"14, 19, 44, 45"
477,1412,Q10 030,Bện viện Nhi Đồng 1,Nhà chờ,Quận 10,Lý Thái Tổ,106.669739,10.768029,"14, 27, 38, 69"
478,1413,Q3 038,Nguyễn Đình Chiểu,Trụ dừng,Quận 3,Lý Thái Tổ,106.678099,10.76668,"14, 150, 27, 69"
479,1416,Q3 039,Hồ Thị Kỷ,Biển treo,Quận 3,Lý Thái Tổ,106.675664,10.767423,"14, 150, 27, 69"
480,1417,BX 24,Ba Tơ,Bến xe,Quận 8,Phạm Thế Hiển,106.620802,10.702021,140
481,1427,Q8 038,Cầu Hiệp Ân,Trụ dừng,Quận 8,Phạm Thế Hiển,106.659254,10.741409,"140, 59"
482,1438,Q8 045,Công viên Phường 2,Trụ dừng,Quận 8,Phạm Thế Hiển,106.683533,10.749104,"140, 46, 68"
483,1442,Q7 176,Ngã 3 Tân Quy,Trụ dừng,Quận 7,Lê Văn Lương,106.705018,10.751333,"140, 34, 68"
484,1443,Q7 119,Quận Đoàn 7,Trụ dừng,Quận 7,Lê Văn Lương,106.704422,10.746068,"140, 34, 68"
485,1451,Q1 118,Trần Hưng Đạo,Trụ dừng,Quận 1,Nguyễn Thái Học,106.694984,10.768461,"140, 152, 31, 38, 46, 56, 72"
486,1452,Q8 001,Cầu Nguyễn Văn Cừ,Trụ dừng,Quận 8,Phạm Thế Hiển,106.68724,10.750859,"140, 68"
487,1453,Q7 132,Quận Đoàn 7,Trụ dừng,Quận 7,Lê Văn Lương,106.704519,10.745957,"140, 34, 68"
488,1454,Q7 134,Ngã 3 Tân Quy,Trụ dừng,Quận 7,Lê Văn Lương,106.705124,10.751468,"140, 34, 68"
489,1459,Q8 009,Quận ủy Quận 8,Trụ dừng,Quận 8,Phạm Thế Hiển,106.662987,10.742252,"140, 59"
490,1460,Q8 010,Cầu Nhị Thiên Đường,Trụ dừng,Quận 8,Phạm Thế Hiển,106.659173,10.741562,"140, 59"
491,1478,QTD 035,Khu Công nghiệp Đồng an,Trụ dừng,Quận Thủ Đức,Tỉnh lộ 43,106.721122,10.893886,"141, 60-5"
492,1482,BX76,Khu chế xuất Linh Trung 2,Bến xe,Quận Thủ Đức,Ngô Chí Quốc,106.71764,10.891215,141
493,1485,QTD 043,Phường Tam Bình,Trụ dừng,Quận Thủ Đức,Tô Ngọc Vân,106.735611,10.868147,"141, 29"
494,1489,QTD 042,Ngã Tư Gò Dưa,Biển treo,Quận Thủ Đức,Tỉnh lộ 43,106.73207,10.873826,"141, 60-5"
495,1490,QTD 047,Chùa Vạn Đức,Trụ dừng,Quận Thủ Đức,Tô Ngọc Vân,106.742713,10.862968,"141, 29"
496,1497,Q9 092,Trạm y tế Phường Hiệp Phú,Trụ dừng,Quận 9,Lê Văn Việt,106.782028,10.844114,"141, 55, 56, 61-1, 76, 99"
497,1498,QTD 050,Ngã Ba Linh Đông,Trụ dừng,Quận Thủ Đức,Tô Ngọc Vân,106.75045,10.855843,"141, 29, 89"
498,1499,Q9 093,Chợ Hiệp Phú,Trụ dừng,Quận 9,Lê Văn Việt,106.784261,10.844128,"141, 55, 56, 61-1, 76, 99"
499,1505,Q9 242,Ngã 3 Nghêu sò,Trụ dừng,Quận 9,Làng Tăng Phú,106.798767,10.845685,"141, 76"
500,1508,Q9 096,Đại Học GTVT,Trụ dừng,Quận 9,Lê Văn Việt,106.793922,10.845276,"141, 55, 56, 61-1, 99"
501,1512,Q9 073,Ngã tư Samsung,Trụ dừng,Quận 9,Lã Xuân Oai,106.803589,10.831241,"141, 76"
502,1516,Q9 166,Chợ Long Trường,Trụ dừng,Quận 9,Nguyễn Duy Trinh,106.821106,10.806039,"141, 88"
503,1518,Q9 161,Chợ Long Trường,Trụ dừng,Quận 9,Nguyễn Duy Trinh,106.821077,10.806213,"141, 88"
504,1521,BX28,Khu du lịch BCR,Bến xe,Quận 9,Tam Đa,106.839058,10.803757,141
505,1524,Q9 082,Ngã tư Samsung,Ô sơn,Quận 9,Lã Xuân Oai,106.803707,10.831325,"141, 76"
506,1528,Q9 241,Ngã 3 Nghêu sò,Trụ dừng,Quận 9,Làng Tăng Phú,106.798847,10.846004,"141, 76"
507,1530,Q9 103,Đại Học GTVT,Trụ dừng,Quận 9,Lê Văn Việt,106.794421,10.845566,"141, 55, 56, 61-1, 99"
508,1536,Q9 091,Nhà sách Thành Nghĩa,Trụ dừng,Quận 9,Lê Văn Việt,106.780377,10.845176,"141, 55, 56, 57, 61-1, 76"
509,1537,Q9 106,Chợ Hiệp Phú,Ô sơn,Quận 9,Lê Văn Việt,106.784084,10.84427,"141, 55, 56, 61-1, 76, 99"
510,1540,QTD 020,Nhà Sách Thủ Đức,Trụ dừng,Quận Thủ Đức,Tô Ngọc Vân,106.753235,10.851977,"141, 29, 89"
511,1545,QTD 019,Bệnh viện Thủ Đức,Trụ dừng,Quận Thủ Đức,Tam Hà,106.745872,10.863057,"141, 29, 89"
512,1549,QTD 027,Ngã Tư Gò Dưa,Trụ dừng,Quận Thủ Đức,Tỉnh lộ 43,106.732119,10.874105,"141, 60-5"
513,1560,BX54,Cư xá Nhiêu Lộc,Bến xe,Quận Tân Phú,Lê Thúc Hoạch,106.622057,10.787617,30
514,1565,QTP 138,Trâm Tâm Mua Sắm,Trụ dừng,Quận Tân Phú,Hòa Bình,106.628569,10.771296,"15, 32"
515,1570,QTP 137,Ngã 4 Hòa Bình,Biển treo,Quận Tân Phú,Hòa Bình,106.632539,10.769973,"15, 62, 64, 69"
516,1571,Q11 045,Thuỷ Tạ,Nhà chờ,Quận 11,Hòa Bình,106.637866,10.768814,"15, 23, 62, 64, 69"
517,1589,Q6 004,Lý Chiêu Hoàng,Ô sơn,Quận 6,An Dương Vương,106.623548,10.740065,"101, 61"
518,1615,BX34,Bến xe buýt Hiệp Thành,Bến xe,Quận 12,Hiệp Thành 17,106.641739,10.877756,"145, 146, 18, 48"
519,1616,Q11 044,Trường Hòa Bình,Trụ dừng,Quận 11,Hòa Bình,106.639261,10.768361,"15, 23, 62, 64, 69"
520,1619,QTP 144,Ngã 4 Hòa Bình,Trụ dừng,Quận Tân Phú,Hòa Bình,106.632839,10.77001,"15, 62, 64, 69"
521,1621,QTP 143,Trung Tâm Mua Sắm,Ô sơn,Quận Tân Phú,Hòa Bình,106.629044,10.771277,"15, 32"
522,1635,QHMT250,Trường Nguyễn Hữu Cầu,Nhà chờ,Huyện Hóc Môn,Nguyễn Ánh Thủ,106.61481,10.866466,"145, 24, 48"
523,1644,Q11 074,Âu Cơ,Trụ dừng,Quận 11,Lạc Long Quân,106.647484,10.774116,"145, 148, 38"
524,1645,Q11 076,Trường Lê Quý Đôn,Nhà chờ,Quận 11,Lạc Long Quân,106.642989,10.767818,"145, 148, 38"
525,1648,QBTH 096,Trường TH Nguyễn Đình Chiểu,Trụ dừng,Quận Bình Thạnh,Lê Quang Định,106.698409,10.803546,"146, 24, 91"
526,1649,Q11 068,Cây Gõ,Ô sơn,Quận 11,Minh Phụng,106.643203,10.755244,"145, 148"
527,1650,QBTH 099,Nhà thờ Bình Hòa,Trụ dừng,Quận Bình Thạnh,Nơ Trang Long,106.695185,10.809674,"31, 36, 64"
528,1670,Q12 001,Metro Hiệp Phú,Trụ dừng,Quận 12,Lê Văn Khương,106.649705,10.863711,"36, 62"
529,1675,Q11 059,Cây Gõ,Nhà chờ,Quận 11,Minh Phụng,106.643486,10.755328,"145, 148"
530,1682,Q11 071,Trường Lê Quý Đôn,Nhà chờ,Quận 11,Lạc Long Quân,106.64296,10.767508,"145, 148, 38"
531,1684,Q11 073,Âu Cơ,Nhà chờ,Quận 11,Lạc Long Quân,106.647461,10.773831,"145, 148, 38"
532,1690,Q12 156,Trung tâm Văn hóa Quận 12,Nhà chờ,Quận 12,Nguyễn Ảnh Thủ,106.60768,10.855824,"145, 24, 48"
533,1694,Q12 160,Trường Nguyễn Hữu Cầu,Trụ dừng,Quận 12,Nguyễn Ảnh Thủ,106.615089,10.866635,"145, 24, 48"
534,1695,Q12 161,Tô Ký,Trụ dừng,Quận 12,Nguyễn Ảnh Thủ,106.616639,10.868284,"145, 18"
535,1744,Q12 172,Hiệp Thành 31,Trụ dừng,Quận 12,Nguyễn Ảnh Thủ,106.643965,10.876739,"146, 48"
536,1754,QGV 030,Ngã ba Nguyễn Văn Lượng,Trụ dừng,Quận Gò Vấp,Thống Nhất,106.665245,10.839223,"146, 36"
537,1768,QBTH 110,Nhà thờ Bình Hòa,Trụ dừng,Quận Bình Thạnh,Nơ Trang Long,106.695035,10.809906,"31, 36, 64"
538,1771,QBTH 086,Trường TH Nguyễn Đình Chiểu,Nhà chờ,Quận Bình Thạnh,Lê Quang Định,106.698328,10.803278,"146, 24, 91"
539,1783,QBT 245,Trường tiểu học Bình Trị 1,Trụ dừng,Quận Bình Tân,Hương lộ 2,106.609231,10.767813,"15, 16"
540,1784,QBT 244,Hương lộ 2,Ô sơn,Quận Bình Tân,Hương lộ 2,106.606607,10.766664,"15, 16"
541,1789,QBT 085,Nghĩa trang Bình TÂn,Trụ dừng,Quận Bình Tân,Quốc lộ 1A,106.590935,10.768545,"15, 151, 25, 60-1"
542,1790,QBT 088,Khu Công nghiệp Tân Tạo,Nhà chờ,Quận Bình Tân,Quốc lộ 1A,106.592392,10.752793,"15, 151, 60-1, 73"
543,1792,QBT 089,Công ty Pouyuen,Nhà chờ,Quận Bình Tân,Quốc lộ 1A,106.595367,10.746899,"15, 151, 60-1"
544,1794,QBT 091,Trạm Điện Quốc lộ 1A,Trụ dừng,Quận Bình Tân,Quốc lộ 1A,106.599724,10.740001,"15, 151, 60-1"
545,1795,QBT 092,Công an Quận Bình Tân,Trụ dừng,Quận Bình Tân,Quốc lộ 1A,106.602081,10.736204,"15, 151, 60-1"
546,1798,QBT 046,Chùa Sùng Quang,Trụ dừng,Quận Bình Tân,Hồ Học Lãm,106.610566,10.723284,"15, 39"
547,1799,QBT 045,Chợ Khu phố 2,Trụ dừng,Quận Bình Tân,Hồ Học Lãm,106.608459,10.726019,"15, 39"
548,1801,QBT 047,Khu dân cư Hương lộ 5,Ô sơn,Quận Bình Tân,Hồ Học Lãm,106.611877,10.72068,"101, 15"
549,1805,BX 76,Đường 44,Bến xe,Quận 8,Đường 44 Trương Đình Hội,106.622685,10.723932,15
550,1848,QBT 037,Võ Văn Kiệt,Trụ dừng,Quận Bình Tân,Hồ Học Lãm,106.612229,10.72069,"101, 15"
551,1850,QBT 038,Chùa Sùng Quang,Trụ dừng,Quận Bình Tân,Hồ Học Lãm,106.610577,10.72283,"15, 39"
552,1852,QBT 040,Ngã tư An Lạc,Ô sơn,Quận Bình Tân,Hồ Học Lãm,106.606857,10.729012,"15, 151"
553,1856,QBT 051,Trạm Điện Quốc lộ 1A,Ô sơn,Quận Bình Tân,Quốc lộ 1A,106.601364,10.737657,"15, 151, 60-1"
554,1858,QBT 054,KCN Tân Tạo,Nhà chờ,Quận Bình Tân,Quốc lộ 1A,106.592692,10.752967,"15, 151, 60-1"
555,1861,QBT 056,Trạm xăng số 5,Ô sơn,Quận Bình Tân,Quốc lộ 1A,106.591858,10.757884,"15, 151, 25, 60-1"
556,1865,QBT 058,Hương lộ 2,Trụ dừng,Quận Bình Tân,Quốc lộ 1A,106.591148,10.768476,"15, 151, 25, 60-1"
557,1866,QBT 113,Thạch cao Thanh Tài,Ô sơn,Quận Bình Tân,Hương lộ 2,106.605835,10.766184,"15, 16"
558,1871,BX86,Bến xe buýt Ngã ba Tân Vạn,Bến xe,Quận 9,Xa Lộ Hà Nội,106.82683,10.898486,150
559,1872,QBTH 051,Đại học Hồng Bàng,Nhà chờ,Quận Bình Thạnh,Điện Biên Phủ,106.706268,10.799747,"150, 45, 93"
560,1874,QBTH 049,Cầu Điện Biên Phủ,Nhà chờ,Quận Bình Thạnh,Điện Biên Phủ,106.701654,10.795089,"150, 45, 72-1, 93"
561,1877,Q1 087,Nguyễn Văn Thủ,Biển treo,Quận 1,Nguyễn Bỉnh Khiêm,106.700569,10.791216,"150, 45, 93"
562,1881,Q3 058,Đại học Kinh tế,Trụ dừng,Quận 3,Nguyễn Đình Chiểu,106.694191,10.782981,"150, 31, 93"
563,1882,Q3 061,Cách mạng Tháng Tám,Trụ dừng,Quận 3,Nguyễn Đình Chiểu,106.686394,10.77465,"150, 69"
564,1883,Q3 060,Trương Định,Nhà chờ,Quận 3,Nguyễn Đình Chiểu,106.689789,10.77824,"150, 28"
565,1897,QBT 071,Nồi Hơi,Trụ dừng,Quận Bình Tân,Quốc lộ 1A,106.602333,10.820871,"151, 60-1"
566,1899,Q12 089,Lộc Ích,Nhà chờ,Quận 12,Quốc lộ 1A,106.603855,10.827779,"151, 60-1"
567,1903,Q12 093,Trạm măng,Trụ dừng,Quận 12,Quốc lộ 1A,106.612304,10.839755,"151, 60-1"
568,1908,Q12 090,Ngã tư Bà Điểm,Trụ dừng,Quận 12,Quốc lộ 1A,106.606559,10.833269,"151, 60-1"
569,1909,Q3 020,Ngã 7 Lý Thái Tổ,Trụ dừng,Quận 3,Điện Biên Phủ,106.675224,10.768703,"10, 150, 91"
570,1910,Q12 092,Trạm Rác,Trụ dừng,Quận 12,Quốc lộ 1A,106.610202,10.83789,"151, 60-1"
571,1917,Q3 026,Sở Khoa học và Công nghệ,Nhà chờ,Quận 3,Điện Biên Phủ,106.687621,10.780286,"150, 30, 91"
572,1919,Q9 225,Nghĩa trang liệt sĩ TP.HCM,Trụ dừng,Quận 9,Quốc lộ 1,106.809458,10.873515,"08, 150, 19, 30, 33, 56, 60-1, 60-2, 60-3, 67, 93, 99"
573,1920,Q3 028,Phạm Ngọc Thạch,Trụ dừng,Quận 3,Điện Biên Phủ,106.692375,10.784965,"150, 30, 72-1, 91, 93"
574,1928,HHM 019,Ngã tư Bà Điểm,Trụ dừng,Huyện Hóc Môn,Quốc lộ 1A,106.605804,10.832674,"151, 60-1"
575,1930,QBT 073,Quang Châu,Ô sơn,Quận Bình Tân,Quốc lộ 1A,106.602554,10.823311,"151, 60-1"
576,1932,QBT 075,Gò Mây,Trụ dừng,Quận Bình Tân,Quốc lộ 1A,106.601379,10.818021,"151, 60-1"
577,1936,BX 56,Khu dân cư Trung Sơn,Bến xe,Huyện Bình Chánh,Đường số 10,106.689041,10.733988,152
578,1944,Q1 040,Khách sạn New world,Trụ dừng,Quận 1,Phạm Hồng Thái,106.695824,10.77129,"152, 31, 38, 56, 65"
579,1945,BX 50,Sân bay Tân Sơn Nhất,Bến xe,Quận Tân Bình,Trường Sơn_QTB,106.66383,10.815592,"103, 109, 152, 72-1"
580,1963,QBT 267,Phòng tiếp dân,Trụ dừng,Quận Bình Tân,Mã Lò,106.603239,10.768097,"16, 41"
581,1967,QTP 085,Trạm Bình Long,Trụ dừng,Quận Tân Phú,Tân Kỳ Tân Quý,106.614241,10.796944,"16, 69"
582,1968,QBT 243,Ngã 3 Áo Đôi,Trụ dừng,Quận Bình Tân,Mã Lò,106.601313,10.77479,"16, 41"
583,1970,QTP 086,Trường Tiểu Học Tân Quý,Trụ dừng,Quận Tân Phú,Tân Kỳ Tân Quý,106.61688,10.79844,"16, 69"
584,1974,QTP 072,Trạm Bờ Bao Tân Thắng,Trụ dừng,Quận Tân Phú,Lê Trọng Tấn,106.622368,10.80731,"16, 41, 48, 69"
585,1979,BX49,Bến xe buýt Tân Phú,Bến xe,Quận Tân Phú,Trường Chinh,106.633537,10.809163,"16, 48, 60-7, 63-1"
586,1981,Q5 071,Bệnh viện Nguyễn Tri Phương,Trụ dừng,Quận 5,Nguyễn Tri Phương,106.669473,10.755728,"59, 68"
587,2000,QTP 062,Nguyễn Hữu Tiến,Trụ dừng,Quận Tân Phú,Lê Trọng Tấn,106.625366,10.806785,"16, 41, 48, 69"
588,2004,QTP 082,Tân Quý,Trụ dừng,Quận Tân Phú,Tân Kỳ Tân Quý,106.618629,10.799231,"16, 69"
589,2005,QTP 063,Trạm Bờ Bao Tân Thắng,Trụ dừng,Quận Tân Phú,Lê Trọng Tấn,106.622177,10.807464,"16, 41, 48, 69"
590,2009,QTP 084,Trạm Bình Long,Trụ dừng,Quận Tân Phú,Tân Kỳ Tân Quý,106.614571,10.797263,"16, 69"
591,2011,QBT 260,Ngã 3 Ao Đôi,Trụ dừng,Quận Bình Tân,Mã Lò,106.600991,10.775607,"16, 41"
592,2013,QBT 262,Phòng tiếp dân,Trụ dừng,Quận Bình Tân,Mã Lò,106.60311,10.768224,"16, 41"
593,2028,Q1 194,Trường Cao Thắng,Nhà chờ,Quận 1,Hàm Nghi,106.701853,10.771043,"01, 03, 102, 19, 20, 34, 38, 39, 45, 56, 75, 88, D4"
594,2029,Q1 084,Khách sạn Sofitel,Trụ dừng,Quận 1,Lê Duẩn,106.702303,10.78417,"18, 19, 30"
595,2030,Q1 012,SVĐ Hoa Lư,Nhà chờ,Quận 1,Đinh Tiên Hoàng,106.701027,10.7872,"18, 45"
596,2033,QBTH 043,Cầu Bông,Trụ dừng,Quận Bình Thạnh,Lê Văn Duyệt,106.696225,10.796032,"18, 31, 36, 91"
597,2035,QBTH 098,Hồ bơi Đại Đồng,Trụ dừng,Quận Bình Thạnh,Nơ Trang Long,106.695131,10.806355,"18, 31, 36, 64"
598,2038,QBTH 092,Ngã Tư Xóm Gà,Trụ dừng,Quận Bình Thạnh,Lê Quang Định,106.69085,10.811666,"146, 18, 24"
599,2039,QBTH 097,Bệnh Viện Gia Định,Nhà chờ,Quận Bình Thạnh,Nơ Trang Long,106.695013,10.803488,"146, 18, 31, 36, 64, 91"
600,2041,QBTH 094,Ngã Tư Bình Hòa,Trụ dừng,Quận Bình Thạnh,Lê Quang Định,106.694418,10.80871,"18, 24"
601,2046,QGV 152,Trường Đại học Công nghiệp,Trụ dừng,Quận Gò Vấp,Nguyễn Văn Nghi,106.688774,10.821598,"146, 18, 24"
602,2054,Q12 019,Đông Bắc,Trụ dừng,Quận 12,Tô Ký,106.622819,10.855803,"18, 48"
603,2056,Q12 058,Chợ Cầu,Trụ dừng,Quận 12,Tô Ký,106.634068,10.848148,"18, 24, 55, 62"
604,2057,Q12 018,Công viên Phần mềm Quang Trung,Nhà chờ,Quận 12,Tô Ký,106.626531,10.852726,"18, 24, 55, 62"
605,2062,Q12 025,Trường ĐH Lao động Xã hội,Trụ dừng,Quận 12,Tô Ký,106.615861,10.866255,"18, 48"
606,2082,Q5 067,Bệnh viện Nguyễn Tri Phương,Nhà chờ,Quận 5,Nguyễn Tri Phương,106.669698,10.755486,"59, 68"
607,2083,QTD 169,Vietcombank,Trụ dừng,Quận Thủ Đức,Quốc lộ 1,106.769643,10.871597,"19, 33, 50, 53, 60-1, 93"
608,2088,Q12 029,Điện lực Hóc Môn,Ô sơn,Quận 12,Tô Ký,106.621016,10.85653,"18, 48"
609,2089,Q12 030,Đông Bắc,Trụ dừng,Quận 12,Tô Ký,106.623881,10.855118,"18, 24, 55"
610,2090,Q12 031,Công viên Phần mềm Quang Trung,Trụ dừng,Quận 12,Tô Ký,106.625914,10.853248,"18, 24, 55, 62"
611,2092,Q12 060,Chợ Cầu,Trụ dừng,Quận 12,Tô Ký,106.634363,10.848253,"18, 24, 55, 62"
612,2101,QGV 200,Trường Đại học Công nghiệp,Trụ dừng,Quận Gò Vấp,Nguyễn Văn Nghi,106.688254,10.822394,"146, 18, 24"
613,2105,QBTH 089,Ngã Tư Xóm Gà,Trụ dừng,Quận Bình Thạnh,Lê Quang Định,106.690426,10.812019,"146, 18, 24"
614,2107,QBTH 111,Hồ bơi Đại Đồng,Trụ dừng,Quận Bình Thạnh,Nơ Trang Long,106.694954,10.806992,"18, 31, 36, 64"
615,2108,QBTH 088,Chùa Hưng Gia Tự,Trụ dừng,Quận Bình Thạnh,Lê Quang Định,106.693071,10.809379,"18, 24"
616,2110,QBTH 112,Bệnh Viện Gia Định,Nhà chờ,Quận Bình Thạnh,Nơ Trang Long,106.694884,10.803984,"146, 18, 31, 36, 64, 91"
617,2112,QBTH 048,Cầu Bông,Trụ dừng,Quận Bình Thạnh,Lê Văn Duyệt,106.696011,10.795247,"18, 31, 36, 91"
618,2118,Q7 067,Sân bóng đá CLB cảng SG,Trụ dừng,Quận 7,Đường vòng cầu Tân Thuận 2,106.72242,10.752435,"34, 68"
619,2126,Q7 008,Nghĩa trang liệt sỹ Nhà Bè,Trụ dừng,Quận 7,Huỳnh Tấn Phát,106.729876,10.740381,"20, 68, 75"
620,2127,Q7 010,Phú Thuận,Trụ dừng,Quận 7,Huỳnh Tấn Phát,106.731652,10.731337,"20, 75"
621,2130,Q7 009,Cầu Phú Mỹ,Trụ dừng,Quận 7,Huỳnh Tấn Phát,106.730434,10.736803,"20, 75"
622,2140,BX 72,Bến xe buýt Bình Khánh,Bến xe,Huyện Nhà Bè,Huỳnh Tấn Phát,106.766263,10.673856,20
623,2142,QTD 184,Trung tâm kho vận Linh Xuân,Nhà chờ,Quận Thủ Đức,Quốc lộ 1,106.774932,10.870254,"19, 33, 50, 60-1, 93"
624,2143,QTD 186,Công ty Nissan,Ô sơn,Quận Thủ Đức,Quốc lộ 1,106.768248,10.872419,"19, 33, 50, 53, 60-1, 93"
625,2145,QTD 179,Thảo Nguyên,Trụ dừng,Quận Thủ Đức,Quốc lộ 1,106.793938,10.865335,"19, 33, 50, 52, 60-1, 60-2, 93"
626,2146,Q1 085,Khách sạn Sofitel,Trụ dừng,Quận 1,Lê Duẩn,106.702118,10.78428,"19, 30"
627,2153,HBC 171,Bình Hưng,Ô sơn,Huyện Bình Chánh,Quốc lộ 50,106.655686,10.72058,"22, 45, 47, 62-11, 62-9"
628,2172,BX 55,KCN LÊ MINH XUÂN,Bến xe,Huyện Bình Chánh,Trần Đại Nghĩa,106.539509,10.744065,"22, 61, 73"
629,2174,HNB 111,Phà Bình Khánh,Trụ dừng,Huyện Nhà Bè,Huỳnh Tấn Phát,106.765426,10.673856,"20, 75"
630,2182,Q7 032,Khu phố 3,Trụ dừng,Quận 7,Huỳnh Tấn Phát,106.734554,10.725028,"20, 75"
631,2183,Q7 033,Phú Thuận,Trụ dừng,Quận 7,Huỳnh Tấn Phát,106.731834,10.731727,"20, 75"
632,2188,Q7 040,Khu chế xuất Tân Thuận,Trụ dừng,Quận 7,Huỳnh Tấn Phát,106.72868,10.751892,"20, 68, 75"
633,2189,Q7 036,Nghĩa Trang Liệt Sĩ Nhà Bè,Trụ dừng,Quận 7,Huỳnh Tấn Phát,106.730188,10.739944,"20, 68, 75"
634,2196,QTB 048,Bàu Cát 8,Trụ dừng,Quận Tân Bình,Âu Cơ,106.641182,10.78729,"23, 27, 64"
635,2199,QTB 046,Bệnh Viện Tân Phú,Trụ dừng,Quận Tân Bình,Âu Cơ,106.642785,10.78299,"23, 27"
636,2200,QTB 071,Ngã ba Ấp Bắc,Trụ dừng,Quận Tân Bình,Trường Chinh,106.641036,10.799642,"23, 65"
637,2211,HHM 179,Chợ Bà Điểm,Trụ dừng,Huyện Hóc Môn,Phan Văn Hớn,106.599693,10.839987,"23, 48, 71"
638,2220,HHM 190,Dương Công Khi,Trụ dừng,Huyện Hóc Môn,Phan Văn Hớn,106.562667,10.866166,"23, 28"
639,2222,HHM 066,Trường PTTH Nguyễn Văn Cừ,Trụ dừng,Huyện Hóc Môn,Nguyễn Văn Bứa,106.550753,10.869479,"23, 62-5, 78, 85"
640,2227,BX 39,Bến xe buýt Cầu Lớn,Bến xe,Huyện Hóc Môn,Nguyễn Văn Bứa,106.535561,10.871845,"23, 62-5, 78, 85"
641,2239,HBC 446,Ngã 3 Trường học,Ô sơn,Huyện Bình Chánh,Thế Lữ,106.568112,10.703923,"101, 22"
642,2247,HBC 219,Bình Hưng,Ô sơn,Huyện Bình Chánh,Quốc lộ 50,106.655837,10.720848,"22, 45, 47, 62-11, 62-9"
643,2248,HBC 222,Công an Bình Hưng,Trụ dừng,Huyện Bình Chánh,Quốc lộ 50,106.656105,10.730905,"22, 45, 47, 62-11, 62-9"
644,2250,Q12 086,Trạm đăng kiểm,Trụ dừng,Quận 12,Quốc lộ 1A,106.621059,10.8475,"24, 33, 60-1, 60-5, 61-3"
645,2252,Q12 088,Cầu vượt An Sương,Nhà chờ,Quận 12,Quốc lộ 1A,106.616081,10.843623,"24, 33, 60-1, 60-5, 61-3"
646,2254,Q12 085,Chung cư Thái An,Trụ dừng,Quận 12,Quốc lộ 1A,106.624348,10.84907,"24, 33, 60-1, 60-5, 61-3"
647,2257,HHM 084,Chợ Hóc Môn,Trụ dừng,Huyện Hóc Môn,Quang Trung,106.598416,10.888323,"24, 78"
648,2259,HHM 164,Ngân hàng Nông Nghiệp,Trụ dừng,Huyện Hóc Môn,Lý Thường Kiệt ,106.594368,10.888333,"24, 62-5, 85"
649,2261,HHM 166,Ngã tư Hóc Môn,Trụ dừng,Huyện Hóc Môn,Lý Thường Kiệt ,106.58757,10.884733,"24, 62-5, 85"
650,2263,HHM 044,Ngã 3 Lam Sơn,Trụ dừng,Huyện Hóc Môn,Quốc lộ 22,106.581003,10.892279,"13, 24, 74"
651,2266,HHM 083,Ngã 3 Chùa,Trụ dừng,Huyện Hóc Môn,Quang Trung,106.60156,10.888002,"24, 78"
652,2267,HHM 075,Trường Nguyễn Văn Cừ,Nhà chờ,Huyện Hóc Môn,Nguyễn Văn Bứa,106.551011,10.869195,"23, 62-5, 78, 85"
653,2269,HHM 191,Dương Công Khi,Trụ dừng,Huyện Hóc Môn,Phan Văn Hớn,106.562501,10.866108,"23, 28"
654,2270,HHM 031,Dân Thắng,Trụ dừng,Huyện Hóc Môn,Quốc lộ 22,106.583878,10.888708,"24, 74"
655,2272,BX 40,Bãi xe buýt 19/5,Bến xe,Huyện Hóc Môn,Hương Lộ 60B,106.583473,10.893196,24
656,2284,HHM 202,Chợ Bà Điểm,Biển treo,Huyện Hóc Môn,Phan Văn Hớn,106.59996,10.839502,"23, 48, 71"
657,2291,QTP 016,Trạm Tân Kỳ Tân Quý,Trụ dừng,Quận Tân Phú,Trường Chinh,106.635269,10.8048,"23, 27, 62, 65"
658,2292,QTP 015,Siêu thị BigC,Nhà chờ,Quận Tân Phú,Trường Chinh,106.634773,10.806212,"23, 27, 48, 62, 65"
659,2293,QTB 080,Chợ Võ Thành Trang,Trụ dừng,Quận Tân Bình,Trường Chinh,106.637517,10.801275,"13, 23, 65"
660,2296,QTB 081,Ngã ba Trương Công Định,Trụ dừng,Quận Tân Bình,Trường Chinh,106.641557,10.799115,"23, 65"
661,2300,QTP 006,Bệnh viện Quân Tân Phú,Nhà chờ,Quận Tân Phú,Âu Cơ,106.642334,10.783712,"23, 27"
662,2306,QBT 107,Kinh Dương Vương,Trụ dừng,Quận Bình Tân,Tên Lửa,106.614235,10.741721,"25, 41"
663,2310,QBT 142,Kim Thành,Trụ dừng,Quận Bình Tân,"Tỉnh lộ 10,Tân Tạo, Hồ Chí Minh, Việt Nam",106.6017,10.754742,"25, 62-6, 62-7, 81"
664,2325,HBC 136,Chợ mới Vĩnh Lộc,Trụ dừng,Huyện Bình Chánh,Vĩnh Lộc,106.575655,10.811376,"25, 71"
665,2326,HBC 137,Khu dân cư Đồng Danh,Trụ dừng,Huyện Bình Chánh,Vĩnh Lộc,106.572458,10.809332,"25, 71"
666,2327,BX 61,KDC VĨNH LỘC A,Bến xe,Huyện Bình Chánh,Hương Lộ 80,106.570686,10.811535,25
667,2329,HHM 161,Ngã tư Hóc Môn,Trụ dừng,Huyện Hóc Môn,Lý Thường Kiệt ,106.5878,10.884794,"24, 62-5, 85"
668,2332,HHM 085,Công An Hóc Môn,Trụ dừng,Huyện Hóc Môn,Quang Trung,106.598985,10.888076,"24, 78"
669,2333,HHM 086,Ngã 3 chùa,Trụ dừng,Huyện Hóc Môn,Quang Trung,106.60113,10.887928,"24, 78"
670,2341,Q12 097,Trạm đăng kiểm,Trụ dừng,Quận 12,Quốc lộ 1A,106.621506,10.847418,"24, 33, 60-1, 60-5, 61-3"
671,2342,Q12 095,Cầu vượt An Sương,Trụ dừng,Quận 12,Quốc lộ 1A,106.617803,10.844618,"24, 33, 60-1, 60-5, 61-3"
672,2344,Q12 099,Đài phát thanh Quán Tre,Nhà chờ,Quận 12,Quốc lộ 1A,106.627572,10.850071,"24, 33, 60-1, 60-5, 61-3"
673,2348,QTD 196,Cầu Bình Phước,Trụ dừng,Quận Thủ Đức,Quốc lộ 1,106.719894,10.863451,"33, 60-1, 60-5, 61-3"
674,2349,Q12 062,Công ty EUROPA,Nhà chờ,Quận 12,Quốc lộ 1A,106.707727,10.859148,"33, 60-1, 60-5, 61-3"
675,2350,Q12 064,Công ty Mai Linh,Trụ dừng,Quận 12,Quốc lộ 1A,106.701086,10.860007,"33, 60-1, 60-5, 61-3"
676,2351,Q12 065,Đình An Phú Đông,Biển treo,Quận 12,Quốc lộ 1A,106.695453,10.86065,"33, 60-1, 60-5, 61-3"
677,2352,Q12 067,Công ty Hồng Mã,Trụ dừng,Quận 12,Quốc lộ 1A,106.689413,10.86104,"33, 60-1, 60-5, 61-3"
678,2354,Q12 070,Bến xe Ngã tư Ga,Nhà chờ,Quận 12,Quốc lộ 1A,106.679354,10.861725,"33, 58, 60-1, 60-5, 61-3"
679,2355,Q12 068,Phường An Phú Đông,Trụ dừng,Quận 12,Quốc lộ 1A,106.685175,10.861324,"33, 60-1, 60-5, 61-3"
680,2359,Q12 114,An Phú Đông,Nhà chờ,Quận 12,Quốc lộ 1A,106.686655,10.860897,"33, 60-1, 60-5, 61-3"
681,2360,Q12 116,Đài liệt sĩ An Phú Đông,Ô sơn,Quận 12,Quốc lộ 1A,106.692331,10.860386,"33, 60-1, 60-5, 61-3"
682,2362,Q12 119,Tu viện Khánh An,Trụ dừng,Quận 12,Quốc lộ 1A,106.706048,10.859017,"33, 60-1, 60-5, 61-3"
683,2364,Q12 118,Công ty đá Ngọc Ngân,Trụ dừng,Quận 12,Quốc lộ 1A,106.700699,10.859675,"33, 60-1, 60-5, 61-3"
684,2365,QTD 158,Ngã 4 Bình Phước,Nhà chờ,Quận Thủ Đức,Quốc lộ 1,106.720451,10.863315,"33, 60-1, 60-5, 61-3"
685,2366,HBC 147,Ngã 5 Vĩnh Lộc,Trụ dừng,Huyện Bình Chánh,Vĩnh Lộc,106.575338,10.811023,"25, 71"
686,2367,HBC 146,KDC Vĩnh Lộc A,Trụ dừng,Huyện Bình Chánh,Vĩnh Lộc,106.572393,10.809158,"25, 71"
687,2368,Q12 121,Aone,Trụ dừng,Quận 12,Quốc lộ 1A,106.713504,10.859659,"33, 60-1, 60-5, 61-3"
688,2381,QBT 157,Ngã 4 Bà Hom,Trụ dừng,Quận Bình Tân,"Tỉnh lộ 10,Tân Tạo, Hồ Chí Minh, Việt Nam",106.594154,10.755855,"25, 62-6, 62-7, 81"
689,2383,QBT 159,Đại Hòa,Trụ dừng,Quận Bình Tân,"Tỉnh lộ 10,Tân Tạo, Hồ Chí Minh, Việt Nam",106.60199,10.754559,"25, 62-6, 62-7, 81"
690,2389,QBT 103,Aeon mall Bình Tân,Trụ dừng,Quận Bình Tân,Tên Lửa,106.613249,10.744081,"25, 41"
691,2393,Q6 096,Tháp Mười,Trụ dừng,Quận 6,Tháp Mười,106.653036,10.750326,"05, 39, 47"
692,2394,QTP 003,Trạm Lũy Bán Bích,Trụ dừng,Quận Tân Phú,Âu Cơ,106.638618,10.794283,"27, 30"
693,2396,QTP 004,Nguyễn Hồng Đào,Trụ dừng,Quận Tân Phú,Âu Cơ,106.640253,10.789466,"23, 27, 64"
694,2401,Q11 079,Trường Phạm Ngọc Thạch,Nhà chờ,Quận 11,Âu Cơ,106.648863,10.77333,"27, 38"
695,2404,Q11 081,Bình Thới,Trụ dừng,Quận 11,Âu Cơ,106.651524,10.769483,"27, 38"
696,2405,Q1 143,Nhà Sách Minh Khai,Trụ dừng,Quận 1,Phạm Viết Chánh,106.6828,10.76602,"27, 53"
697,2414,QTB 040,Vòng xoay Lê Đại Hành,Trụ dừng,Quận Tân Bình,Âu Cơ,106.651599,10.769647,"27, 38"
698,2416,QTB 042,Ngã tư Lạc Long Quân,Trụ dừng,Quận Tân Bình,Âu Cơ,106.648423,10.7744,"27, 38"
699,2420,QTB 049,Chợ Bàu Cát,Trụ dừng,Quận Tân Bình,Âu Cơ,106.640221,10.790294,"27, 64"
700,2422,QTB 051,Ngã ba Ba Vân,Trụ dừng,Quận Tân Bình,Âu Cơ,106.638349,10.796,"27, 62"
701,2423,QTB 050,Công ty Giấy Mai Lan,Trụ dừng,Quận Tân Bình,Âu Cơ,106.638982,10.793972,"27, 30"
702,2426,BX 53,Xuân Thới Thượng,Bến xe,Huyện Hóc Môn,Phan Văn Hớn,106.564143,10.862499,28
703,2439,HBC 081,Nguyễn Thị Tú,Trụ dừng,Huyện Bình Chánh,Nguyễn Thị Tú,106.580488,10.813832,"28, 48"
704,2444,QBT 035,Công ty Bảo Ngọc Châu,Trụ dừng,Quận Bình Tân,Nguyễn Thị Tú,106.594913,10.81555,"28, 48, 69"
705,2457,QTP 024,Cây xăng Tây Thạnh,Trụ dừng,Quận Tân Phú,Tây Thạnh,106.625565,10.816156,"28, 32, 41"
706,2467,BX 10,Đường A1 (Phà Cát Lái),Bến xe,Quận 2,Đường A,106.782669,10.762,"29, 43"
707,2474,Q2 039,Chợ Cây Xoài,Trụ dừng,Quận 2,Nguyễn Thị Định,106.767154,10.775828,"29, 43"
708,2477,Q3 017,Võ Văn Tần,Trụ dừng,Quận 3,Cách Mạng Tháng Tám,106.687202,10.77469,"28, 65"
709,2479,BX77,Chợ nông sản Thủ Đức,Bến xe,Quận Thủ Đức,Quốc lộ 1,106.72943115234376,10.868857383728027,"29, 91"
710,2491,Q3 102,Bảo tàng Phụ Nữ,Trụ dừng,Quận 3,Võ Thị Sáu,106.687514,10.783533,"28, 30, 91"
711,2509,QTD 016,Bệnh viện Thủ Đức,Trụ dừng,Quận Thủ Đức,Tam Hà,106.745682,10.863108,"29, 89"
712,2517,HBC 082,Ngã 5 Vĩnh Lộc,Trụ dừng,Huyện Bình Chánh,Nguyễn Thị Tú,106.580215,10.8139,"28, 48"
713,2520,QBT 030,Công ty Bảo Châu,Trụ dừng,Quận Bình Tân,Nguyễn Thị Tú,106.594925,10.815697,"28, 48, 69"
714,2531,Q2 030,Chợ Cây Xoài,Trụ dừng,Quận 2,Nguyễn Thị Định,106.766617,10.775916,"29, 43"
715,2535,BX94,Công viên Đặng Thùy Trâm,Bến xe,Quận Bình Thạnh,Đặng Thùy Trâm,106.700431,10.833754,31
716,2541,QBTH 106,Trường Trung cấp xây dựng Tp. HCM,Trụ dừng,Quận Bình Thạnh,Nơ Trang Long,106.700833,10.819027,"31, 64"
717,2543,QBTH 107,Nhà văn hóa Lao Động,Trụ dừng,Quận Bình Thạnh,Nơ Trang Long,106.697856,10.815528,"31, 64"
718,2547,BX 17,Đầu bến Tân Quy,Bến xe,Quận 7,Nguyễn Thị Thập,106.706343,10.735743,38
719,2550,QBTH 105,UBND Phường 13,Trụ dừng,Quận Bình Thạnh,Nơ Trang Long,106.702974,10.819696,"31, 64"
720,2551,QTP 107,Nhà Thờ Tân Hương,Trụ dừng,Quận Tân Phú,Tân Hương,106.624565,10.789681,"30, 41"
721,2553,QTP 106,Trạm Chợ Tân Hương,Trụ dừng,Quận Tân Phú,Tân Hương,106.621666,10.790046,"30, 32, 69"
722,2554,QTP 109,Nhà thờ Martino,Ô sơn,Quận Tân Phú,Tân Hương,106.628891,10.792511,"30, 41"
723,2559,QTB 082,Ngã ba Hồng Đào,Trụ dừng,Quận Tân Bình,Trường Chinh,106.644266,10.797666,"30, 65"
724,2565,Q3 080,Điện Biên Phủ,Trụ dừng,Quận 3,Phạm Ngọc Thạch,106.693372,10.784824,"30, 36"
725,2567,Q3 117,Nhà Văn Hóa Thanh Niên,Trụ dừng,Quận 3,Phạm Ngọc Thạch,106.696794,10.781741,"30, 36, 52"
726,2568,Q1 005,Nhà Thờ Đức Bà,Trụ dừng,Quận 1,Công xã Paris,106.699154,10.779233,"36, DL02"
727,2572,Q1 032,Nguyễn Hữu Cảnh,Trụ dừng,Quận 1,Nguyễn Hữu Cảnh,106.707222,10.78328,"44, 53, 56, 88"
728,2573,Q1 033,Mầm non Hoa Lư,Trụ dừng,Quận 1,Nguyễn Hữu Cảnh,106.708628,10.785077,"30, 44, 56, 88"
729,2574,QBTH 078,Chung cư Manor,Nhà chờ,Quận Bình Thạnh,Nguyễn Hữu Cảnh,106.718445,10.793266,"30, 56"
730,2579,QBTH 077,Hồ Bơi Hải Quân,Trụ dừng,Quận Bình Thạnh,Nguyễn Hữu Cảnh,106.710779,10.789113,"30, 44, 56, 88"
731,2584,QTP 113,Trạm Chợ Tân Hương,Trụ dừng,Quận Tân Phú,Tân Hương,106.621381,10.790178,"30, 32, 69"
732,2589,QTPT186,Trường GTVT,Trụ dừng,Quận Tân Phú,Văn Cao,106.622223,10.786699,"32, 41"
733,2592,QTP 088,Trạm Nhà Thờ Họ Tộc Nguyễn,Ô sơn,Quận Tân Phú,Tân Kỳ Tân Quý,106.620845,10.799974,"32, 69"
734,2593,QTP 101,Trạm Ngã 4 Gò Dầu- Tân Quý,Trụ dừng,Quận Tân Phú,Tân Quý,106.620389,10.795331,"32, 69"
735,2594,QTP 090,Trạm Xăng,Trụ dừng,Quận Tân Phú,Tân Kỳ Tân Quý,106.626075,10.801929,"32, 41, 69"
736,2599,QTP 178,Trung tâm Văn Hóa Quận Tân Phú,Trụ dừng,Quận Tân Phú,Dương Đức Hiền,106.627078,10.810438,"16, 32, 48"
737,2602,QTP 061,Trường Đại học Công Nghiệp Thực Phẩm,Ô sơn,Quận Tân Phú,Lê Trọng Tấn,106.628586,10.806065,"32, 41, 48, 69"
738,2623,QGV 026,Nhà Thờ Hà Nội,Trụ dừng,Quận Gò Vấp,Thống Nhất,106.665106,10.851082,"146, 32, 36"
739,2632,QGV 025,Nhà Thờ Hà Nội,Trụ dừng,Quận Gò Vấp,Thống Nhất,106.665316,10.851836,"146, 32, 36"
740,2651,QTP 019,Cây xăng Tây Thạnh,Trụ dừng,Quận Tân Phú,Tây Thạnh,106.625587,10.816451,"28, 32, 41"
741,2653,QTP 179,Trung tâm Văn Hóa Quận Tân Phú,Trụ dừng,Quận Tân Phú,Dương Đức Hiền,106.626906,10.810607,"16, 32"
742,2654,QTP 074,Trường Đại học Công Nghiệp Thực Phẩm,Ô sơn,Quận Tân Phú,Lê Trọng Tấn,106.628671,10.805859,"32, 41, 69"
743,2659,QTP 079,Trạm cây xăng Sài Gòn Petro,Ô sơn,Quận Tân Phú,Tân Kỳ Tân Quý,106.625923,10.802044,"32, 41, 69"
744,2660,QTP 081,Trạm Nhà Thờ Họ Tộc Nguyễn,Trụ dừng,Quận Tân Phú,Tân Kỳ Tân Quý,106.620499,10.799963,"32, 69"
745,2665,QTP 096,Trạm Gò Dầu,Trụ dừng,Quận Tân Phú,Tân Quý,106.620316,10.795079,"32, 69"
746,2666,QTP 165,Trường GTVT,Trụ dừng,Quận Tân Phú,Văn Cao,106.621998,10.78641,"32, 41"
747,2676,Q12 102,Ngã tư Đình,Ô sơn,Quận 12,Quốc lộ 1A,106.639832,10.856667,"33, 60-1, 60-5, 61-3, 62"
748,2677,Q12 100,Trường Nguyễn Du,Nhà chờ,Quận 12,Quốc lộ 1A,106.632347,10.852583,"33, 60-1, 60-5, 61-3, 62"
749,2696,Q1 086,Diamond Plaza,Trụ dừng,Quận 1,Lê Duẩn,106.698704,10.780914,"18, 30"
750,2702,QBTH 076,Hồ Bơi Hải Quân,Trụ dừng,Quận Bình Thạnh,Nguyễn Hữu Cảnh,106.710522,10.789477,"30, 44, 56, 88"
751,2703,Q1 034,Mầm non Hoa Lư,Nhà chờ,Quận 1,Nguyễn Hữu Cảnh,106.707555,10.784149,"30, 44, 53, 56, 88"
752,2704,Q3 116,Nhà Văn Hóa Thanh Niên,Trụ dừng,Quận 3,Phạm Ngọc Thạch,106.696874,10.781862,"30, 36, 52"
753,2707,Q3 077,Điện Biên Phủ,Trụ dừng,Quận 3,Phạm Ngọc Thạch,106.69335,10.78514,"30, 36"
754,2713,QTB 070,Ngã ba Bình Giã,Trụ dừng,Quận Tân Bình,Trường Chinh,106.644453,10.797792,"30, 65"
755,2719,QTP 110,Nhà thờ Martino,Trụ dừng,Quận Tân Phú,Tân Hương,106.62886,10.792652,"30, 41"
756,2729,QGV 002,Vincom Plaza,Trụ dừng,Quận Gò Vấp,Phan Văn Trị,106.688409,10.827184,"146, 36"
757,2731,QGV 003,PCCC Quận Gò Vấp,Trụ dừng,Quận Gò Vấp,Phan Văn Trị,106.684976,10.828496,"146, 36"
758,2742,QGV 060,Nhà thờ Nữ Vương Hòa Bình,Trụ dừng,Quận Gò Vấp,Lê Đức Thọ,106.654528,10.856419,"103, 36"
759,2745,BX35,Bến xe buýt Thới An,Bến xe,Quận 12,Lê Văn Khương,106.64798,10.878467,"36, 62, 78"
760,2747,QBTH 102,Nhà văn hóa Lao Động,Nhà chờ,Quận Bình Thạnh,Nơ Trang Long,106.697969,10.816129,"31, 64"
761,2749,QBTH 104,UBND Phường 13,Trụ dừng,Quận Bình Thạnh,Nơ Trang Long,106.703333,10.819691,"31, 64"
762,2750,QBTH 103,Trường Trung cấp xây dựng Tp. HCM,Trụ dừng,Quận Bình Thạnh,Nơ Trang Long,106.701069,10.818953,"31, 64"
763,2775,Q12 078,Cao su Vina,Trụ dừng,Quận 12,Quốc lộ 1A,106.648536,10.861767,"33, 60-1, 60-5, 61-3, 62"
764,2781,Q12 083,Trường Nguyễn Du,Nhà chờ,Quận 12,Quốc lộ 1A,106.632469,10.853048,"33, 60-1, 60-5, 61-3, 62"
765,2782,Q4 048,UBND Phường 4,Trụ dừng,Quận 4,Tôn Thất Thuyết,106.703483,10.753109,"44, 46"
766,2783,BX 12,Bến xe buýt Kho Muối,Bến xe,Quận 4,Tôn Thất Thuyết,106.70174,10.752714,"44, 46"
767,2833,Q11 054,Đường Nguyễn Thị Nhỏ,Nhà chờ,Quận 11,Nguyễn Thị Nhỏ,106.652672,10.770221,"38, 69"
768,2834,Q4 045,Công An Phường 4,Trụ dừng,Quận 4,Tôn Thất Thuyết,106.703601,10.75323,"44, 46"
769,2843,Q5 077,Bệnh viện 30/4,Ô sơn,Quận 5,Sư Vạn Hạnh,106.673797,10.75801,"38, 45"
770,2844,Q5 078,Bệnh viện 30/4,Nhà chờ,Quận 5,Sư Vạn Hạnh,106.673652,10.758147,"38, 45"
771,2852,Q11 051,Coopmart Phú Thọ,Trụ dừng,Quận 11,Lữ Gia,106.653236,10.771143,"38, 69"
772,2854,Q1 167,Chợ Dân Sinh,Trụ dừng,Quận 1,Ký Con,106.698242,10.767312,"39, D4"
773,2902,QBT 105,Tên Lửa,Trụ dừng,Quận Bình Tân,Tên Lửa,106.610266,10.752561,"25, 41"
774,2906,QBT 160,Lê Đình Cẩn,Ô sơn,Quận Bình Tân,"Tỉnh lộ 10,Tân Tạo, Hồ Chí Minh, Việt Nam",106.60643,10.75781,"41, 62-6, 62-7, 81"
775,2924,QTP 071,Tây Thạnh,Trụ dừng,Quận Tân Phú,Lê Trọng Tấn,106.61982,10.807646,"41, 48, 69"
776,2932,QBT 101,Tên Lửa,Trụ dừng,Quận Bình Tân,Tên Lửa,106.610137,10.752471,"25, 41"
777,2939,Q2 001,Trần Não,Ô sơn,Quận 2,Lương Định Của,106.730418,10.785556,"43, 88"
778,2945,Q2 007,Phòng Đào tạo Quận 2,Biển treo,Quận 2,Lương Định Của,106.749902,10.791917,"43, 88"
779,2971,Q1 157,Trần Hưng Đạo,Trụ dừng,Quận 1,Nguyễn Cư Trinh,106.69178,10.764468,"45, 53, 56"
780,2972,BX45,Bến đò Bình Quới,Bến xe,Quận Bình Thạnh,Bình Quới,106.742713,10.831815,44
781,2977,Q2 008,Phòng Đào tạo Quận 2,Biển treo,Quận 2,Lương Định Của,106.749424,10.791985,"43, 88"
782,2978,Q10 047,Trường CĐ Sư phạm TW thành phố,Trụ dừng,Quận 10,Nguyễn Chí Thanh,106.670578,10.760277,"05, 45"
783,2983,Q2 014,Trần Não,Ô sơn,Quận 2,Lương Định Của,106.730072,10.785555,"43, 88"
784,2989,BX 22,Bến Mễ Cốc (Rạch Cát),Bến xe,Quận 8,Lưu Hữu Phước,106.626114,10.712879,46
785,3009,Q5 037,Chung cư 109 Nguyễn Biểu,Trụ dừng,Quận 5,Nguyễn Biểu,106.683945,10.755424,"46, 68"
786,3012,Q5 038,Trường THCS Ba Đình,Trụ dừng,Quận 5,Nguyễn Biểu,106.682927,10.75819,"46, 68"
787,3043,BX 58,Hưng Long,Bến xe,Huyện Bình Chánh,Quốc lộ 50,106.647307,10.637669,"09, 47"
788,3078,Q5 040,Chung cư 109 Nguyễn Biểu,Trụ dừng,Quận 5,Nguyễn Biểu,106.683769,10.755565,"46, 68"
789,3079,Q5 039,Trường THCS Ba Đình,Trụ dừng,Quận 5,Nguyễn Biểu,106.682788,10.758242,"46, 68"
790,3080,Q1 121,Trần Hưng Đạo,Nhà chờ,Quận 1,Nguyễn Thái Học,106.695335,10.768434,"140, 28, 46, 69, 72"
791,3101,QTP 065,Trạm Kênh 19/5,Trụ dừng,Quận Tân Phú,Lê Trọng Tấn,106.616302,10.809163,"28, 48, 69"
792,3102,QBT 182,Trạm giữa Vĩnh Lộc,Ô sơn,Quận Bình Tân,Vĩnh Lộc,106.58548,10.818697,"48, 71"
793,3116,LA_4,Nhà máy Kizunai,Ô sơn,Huyện Bình Chánh,Quốc lộ 50,106.660509,10.633061,"47, 62-11, 62-9"
794,3157,BX33,Đại học Bách Khoa,Bến xe,Quận 10,Lý Thường Kiệt,106.661346,10.774031,50
795,3164,BX13,Lê Hồng Phong,Bến xe,Quận 5,Lê Hồng Phong,106.676592,10.761252,"05, 53"
796,3166,Q5 061,Bệnh viện Nguyễn Tri Phương,Nhà chờ,Quận 5,Nguyễn Trãi,106.670149,10.754638,"68, 91"
797,3176,Q3 100,Phạm Ngọc Thạch,Trụ dừng,Quận 3,Võ Thị Sáu,106.690918,10.786916,"30, 72-1, 91"
798,3180,Q10 082,Ngã tư Trần Nhân Tông,Trụ dừng,Quận 10,Hùng Vương,106.676012,10.761984,"05, 91"
799,3184,BX36,Bến xe buýt Công viên phần mềm Quang Trung,Bến xe,Quận 12,Quốc lộ 1A,106.63071,10.852458,55
800,3187,BX 74,Trường Trung học Phổ thông Hiệp Bình,Bến xe,Quận Thủ Đức,Hiệp Bình,106.721474,10.84741,"57, 89"
801,3192,Q9 048,Trung tâm GDTX Quận 9,Trụ dừng,Quận 9,Đình Phong Phú,106.780372,10.839918,"57, 99"
802,3201,BX 32,Chợ Phước Bình,Bến xe,Quận 9,Đại Lộ 3,106.770912,10.812699,57
803,3210,Q12 232,Chợ Đường,Ô sơn,Quận 12,Bùi Công Trừng,106.689101,10.897721,"03, 58"
804,3255,Q12 235,Chợ Đường,Trụ dừng,Quận 12,Bùi Công Trừng,106.689048,10.897452,"03, 58"
805,3272,Q9 044,UBND phường Tăng Nhơn Phú B,Trụ dừng,Quận 9,Đình Phong Phú,106.782453,10.835793,"57, 99"
806,3277,QTD 145,Chợ Thủ Đức,Trụ dừng,Quận Thủ Đức,Lê Văn Ninh,106.754005,10.850327,"08, 57, 93"
807,3300,Q8 059,Phạm Hùng,Trụ dừng,Quận 8,Tạ Quang Bửu,106.668577,10.735828,"34, 59"
808,3301,Q10 063,Nhà thờ Đồng Tiến,Nhà chờ,Quận 10,Thành Thái,106.666237,10.769878,"38, 59, 69"
809,3339,Q8 060,Đường 1011,Trụ dừng,Quận 8,Tạ Quang Bửu,106.669121,10.736265,"34, 59"
810,3364,BX29,Khu dân cư Long Sơn,Bến xe,Quận 9,Nguyễn Xiển,106.83187,10.890372,61-1
811,3372,Q9T175,Chợ Gò Công,Trụ dừng,Quận 9,Nguyễn Văn Tăng,106.827632,10.842052,"61-1, D4"
812,3373,Q9 188,UBND phường Long Thạnh Mỹ,Trụ dừng,Quận 9,Nguyễn Văn Tăng,106.825433,10.841209,"61-1, D4"
813,3374,Q9 100,Ngã ba Mỹ Thành,Ô sơn,Quận 9,Lê Văn Việt,106.812958,10.850071,"55, 56, 61-1, 99, D4"
814,3375,Q9T177,Trường Nguyễn Huệ,Trụ dừng,Quận 9,Nguyễn Văn Tăng,106.818352,10.844096,"61-1, D4"
815,3383,QTD 139,Nhà hàng tiệc cưới Phố Đôi,Trụ dừng,Quận Thủ Đức,Kha Vạn Cân,106.763399,10.868789,"50, 61-1, 93"
816,3384,QTD 136,Nhà hàng tiệc cưới Phố Đôi,Trụ dừng,Quận Thủ Đức,Kha Vạn Cân,106.762476,10.867778,"50, 93"
817,3385,QTD 137,Trạm cầu vượt Linh Xuân,Trụ dừng,Quận Thủ Đức,Kha Vạn Cân,106.76371,10.871423,"50, 61-1, 93"
818,3387,QTD 135,UBND phường Linh Trung,Trụ dừng,Quận Thủ Đức,Kha Vạn Cân,106.761199,10.864264,"61-1, 93"
819,3392,Q9 192,Trường THPT Nguyễn Huệ,Trụ dừng,Quận 9,Nguyễn Văn Tăng,106.817963,10.844434,"61-1, D4"
820,3393,Q9 194,Chợ Gò Công,Ô sơn,Quận 9,Nguyễn Văn Tăng,106.828067,10.842184,"61-1, D4"
821,3395,Q9 099,Ngã ba Mỹ Thành,Ô sơn,Quận 9,Lê Văn Việt,106.812826,10.849865,"55, 56, 61-1, 99, D4"
822,3396,Q9 193,UBND phường Long Thạnh Mỹ,Trụ dừng,Quận 9,Nguyễn Văn Tăng,106.824231,10.841062,"61-1, D4"
823,3427,HBC 377,Ba Làng,Trụ dừng,Huyện Bình Chánh,Quốc lộ 1A,106.556552,10.65658,"62-1, 62-10, 62-8, 63-1"
824,3436,HBC 294,Trường Tiểu học Cầu Xáng,Trụ dừng,Huyện Bình Chánh,Tỉnh lộ 10 Bình Chánh,106.517563,10.78758,"62-6, 62-7, 71, 81"
825,3443,HBC 300,Trường tiểu học Phạm Văn Hai,Trụ dừng,Huyện Bình Chánh,Tỉnh lộ 10 Bình Chánh,106.550125,10.77128,"62-6, 62-7, 71, 81"
826,3444,HBC 301,Mầm non Hoa Thiên Tuế,Trụ dừng,Huyện Bình Chánh,Trần Văn Giàu,106.554433,10.769078,"62-6, 62-7, 73, 81"
827,3449,QBT 156,Phòng Y học ,Trụ dừng,Quận Bình Tân,Tỉnh lộ 10,106.586945,10.756835,"62-6, 62-7, 73, 81"
828,3454,QBT 166,Cấp nước Bình Trị Đông,Trụ dừng,Quận Bình Tân,"Tỉnh lộ 10,Tân Tạo, Hồ Chí Minh, Việt Nam",106.618225,10.757401,"62-6, 62-7, 81"
829,3457,QBT 136,Chợ Phú Lâm,Trụ dừng,Quận Bình Tân,"Tỉnh lộ 10,Tân Tạo, Hồ Chí Minh, Việt Nam",106.618355,10.757481,"62-6, 62-7, 81"
830,3459,QBT 138,Kim Ngân,Trụ dừng,Quận Bình Tân,"Tỉnh lộ 10,Tân Tạo, Hồ Chí Minh, Việt Nam",106.613104,10.758227,"62-6, 62-7, 81"
831,3466,QBT 146,Khang Mỹ Lạc,Trụ dừng,Quận Bình Tân,Tỉnh lộ 10,106.583252,10.757694,"62-6, 62-7, 73, 81"
832,3467,HBC 283,Mầm non Hoa Thiên Tuế,Trụ dừng,Huyện Bình Chánh,Trần Văn Giàu,106.554379,10.769383,"62-6, 62-7, 73, 81"
833,3470,HBC 284,Trường tiểu học Phạm Văn Hai,Trụ dừng,Huyện Bình Chánh,Tỉnh lộ 10,106.550399,10.77138,"62-6, 62-7, 71, 81"
834,3475,HBC 293,Trường Tiểu học Cầu Xáng,Ô sơn,Huyện Bình Chánh,Tỉnh lộ 10 Bình Chánh,106.518009,10.787654,"62-6, 62-7, 71, 81"
835,3506,QCCT089,Nhà văn hóa Cụm An Nhơn Tây,Trụ dừng,Huyện Củ Chi,Tỉnh lộ 15,106.514109,11.089071,"70, 87"
836,3515,QCCT099,ngã 3 xã Phú Mỹ Hưng,Trụ dừng,Huyện Củ Chi,Tỉnh lộ 15 Củ Chi,106.479084,11.131771,"70, 79"
837,3522,BX 67,Bến xe buýt Bến Súc,Bến xe,Huyện Củ Chi,Tỉnh lộ 15,106.455696,11.154887,70
838,3536,QCCT103,Ngã 3 Đền Bến Dược,Trụ dừng,Huyện Củ Chi,Tỉnh lộ 15,106.460727,11.149482,"70, 79"
839,3538,QCCT106,Ngã 3 xã Phú Mỹ Hưng,Trụ dừng,Huyện Củ Chi,Tỉnh lộ 15,106.479959,11.130334,"70, 79"
840,3547,QCCT116,Nhà văn hóa Cụm An Nhơn Tây,Ô sơn,Huyện Củ Chi,Tỉnh lộ 15,106.513885,11.089467,"70, 87"
841,3574,QTP 189,Ủy Ban nhân dân quận Tân Phú,Nhà chờ,Quận Tân Phú,Lũy Bán Bích,106.636385,10.78534,"62, 64, 69"
842,3600,BX 59,Phật Cô Đơn,Bến xe,Huyện Bình Chánh,Mai Bá Hương,106.488499,10.757067,71
843,3634,HHM 035,Công ty Sakos,Nhà chờ,Huyện Hóc Môn,Quốc lộ 22,106.57337,10.903752,"13, 74"
844,3643,HCC 010,Hồng Đào,Trụ dừng,Huyện Củ Chi,Quốc lộ 22,106.520369,10.95003,"13, 74"
845,3648,HCC 014,Điện lực Củ Chi - Ngã 3 Việt Kiều,Nhà chờ,Huyện Củ Chi,Quốc lộ 22,106.501617,10.961317,"13, 74, 94"
846,3649,HCC 043,Công ty Sài Gòn Cáp,Trụ dừng,Huyện Củ Chi,Quốc lộ 22,106.509694,10.956818,"13, 74"
847,3654,HCC 046,Ngã tư Quán đôi,Trụ dừng,Huyện Củ Chi,Quốc lộ 22,106.522923,10.947954,"13, 74"
848,3658,HCC 052,Chợ chiều Tân Phú Trung,Trụ dừng,Huyện Củ Chi,Quốc lộ 22,106.552808,10.931917,"13, 74"
849,3661,BX 79,Bình Khánh,Bến xe,Huyện Cần Giờ,Rừng Sác,106.777223,10.663112,90
850,3662,HCG 024,Chợ Bình Khánh,Nhà chờ,Huyện Cần Giờ,Rừng Sác,106.777357,10.66287,"75, 90"
851,3667,HCG 009,Ngã 3 An Thời Đông,Nhà chờ,Huyện Cần Giờ,Rừng Sác,106.824633,10.575572,"128, 75, 90"
852,3669,HCG 012,Ngã 3 Lý Nhơn,Nhà chờ,Huyện Cần Giờ,Rừng Sác,106.828276,10.561445,"128, 75, 90"
853,3672,HCG 022,Ngã Tư 30/4,Nhà chờ,Huyện Cần Giờ,Duyên Hải,106.91975,10.39541,"75, 90"
854,3673,HCG 020,Cây xăng Đức Thanh,Nhà chờ,Huyện Cần Giờ,Duyên Hải,106.916907,10.39512,"77, 90"
855,3675,BX 78,Bến xe buýt Cần Giờ,Bến xe,Huyện Cần Giờ,Đào Cử,106.964441,10.410474,"75, 77, 90"
856,3678,HCG 021,Ngã Tư 30/4,Nhà chờ,Huyện Cần Giờ,Duyên Hải,106.919551,10.395621,"75, 90"
857,3679,HCG 016,Ngã ba Đảo Khỉ,Nhà chờ,Huyện Cần Giờ,Rừng Sác,106.898652,10.407329,"75, 90"
858,3680,HCG 019,Cây xăng Đức Thanh,Nhà chờ,Huyện Cần Giờ,Duyên Hải,106.916596,10.395326,"75, 77, 90"
859,3682,HCG 010,Ngã 3 An Thời Đông,Nhà chờ,Huyện Cần Giờ,Rừng Sác,106.824934,10.575751,"128, 75, 90"
860,3684,HCG 011,Ngã 3 Lý Nhơn,Nhà chờ,Huyện Cần Giờ,Rừng Sác,106.828694,10.56135,"128, 75, 90"
861,3689,HNB 017,Trường Lê Văn Hưu,Trụ dừng,Huyện Nhà Bè,Huỳnh Tấn Phát,106.759847,10.675985,"20, 75"
862,3692,BX26,Hẻm 813 Long Phước,Bến xe,Quận 9,Long Thuận,106.860107,10.789044,76
863,3694,Q9 133,Nhà bia tưởng niệm,Trụ dừng,Quận 9,Long Phước,106.859411,10.81038,"76, 88"
864,3699,Q9 138,Ngã ba Long Thuận,Trụ dừng,Quận 9,Long Thuận,106.835384,10.814622,"76, 88"
865,3720,BX 57,Chợ Bình Chánh,Bến xe,Huyện Bình Chánh,Quốc lộ 1A,106.571535,10.665484,73
866,3723,HBC 447,Đường dẫn Cao tốc,Ô sơn,Huyện Bình Chánh,Thế Lữ,106.572044,10.702305,"101, 22"
867,3727,HBC 449,Ấp 5,Ô sơn,Huyện Bình Chánh,Thế Lữ,106.577446,10.699169,"101, 22"
868,3742,Q9 267,Đường Hoàng Hữu Nam,Trụ dừng,Quận 9,Hoàng Hữu Nam,106.814125,10.871176,"55, 56, 67, 76, 93"
869,3744,Q9 060,Nghĩa trang liệt sĩ Tp.HCM,Trụ dừng,Quận 9,D400,106.809345,10.871408,"55, 56, 67, 76, 93"
870,3745,Q9 059,Ngã ba Lâm Viên 1,Trụ dừng,Quận 9,D400,106.812386,10.870689,"55, 76, 93"
871,3761,Q9  123,Ngã ba Long Thuận,Trụ dừng,Quận 9,Long Thuận,106.834999,10.814425,"76, 88"
872,3765,Q9 128,Trường tiểu học Long Phước,Ô sơn,Quận 9,Long Phước,106.859474,10.811131,"76, 88"
873,3771,BX 83,Đình Đồng Hòa,Bến xe,Huyện Cần Giờ,Duyên Hải,106.881126,10.380525,77
874,3791,HBC 416,Ấp 5,Ô sơn,Huyện Bình Chánh,Thế Lữ,106.577581,10.699164,"101, 22"
875,3793,HBC 419,Đường dẫn Cao tốc,Ô sơn,Huyện Bình Chánh,Thế Lữ,106.571792,10.702495,"101, 22"
876,3874,BX 64,Bến Dược,Bến xe,Huyện Củ Chi,Tỉnh lộ 15,106.455331,11.154824,"61-4, 79"
877,3905,BX 99,Lê Minh Xuân - Xã Bình Lợi ,Bến xe,Huyện Bình Chánh,"Vườn Thơm, Bình Chánh",106.472449,10.746047,81
878,3933,BX 88,Tân Túc,Bến xe,Huyện Bình Chánh,Nguyễn Hữu Trí,106.551528,10.684682,"62-4, 84"
879,3938,HBC 398,Cầu Chợ Đệm,Trụ dừng,Huyện Bình Chánh,Nguyễn Hữu Trí,106.580992,10.693007,"22, 84"
880,3945,HHM 065,Ngã Ba Giồng,Trụ dừng,Huyện Hóc Môn,Nguyễn Văn Bứa,106.559878,10.869047,"62-5, 78, 85"
881,3957,BX 68,Bến xe buýt An Nhơn Tây,Bến xe,Huyện Củ Chi,An Nhơn Tây,106.511093,11.088134,87
882,3962,HBC 409,Chùa Phước An,Trụ dừng,Huyện Bình Chánh,Nguyễn Hữu Trí,106.579367,10.692796,"73, 84"
883,3964,HHM 076,Ngã 3 Giồng,Trụ dừng,Huyện Hóc Môn,Nguyễn Văn Bứa,106.55924,10.868647,"62-5, 78, 85"
884,3967,HHM 072,Trường Nhị Xuân,Trụ dừng,Huyện Hóc Môn,Nguyễn Văn Bứa,106.538174,10.871176,"23, 62-5, 78, 85"
885,4002,Q2 050,Lê Văn Thịnh,Trụ dừng,Quận 2,Nguyễn Duy Trinh,106.77021,10.788514,"29, 88"
886,4006,Q2 054,Đỗ Xuân Hợp,Trụ dừng,Quận 2,Nguyễn Duy Trinh,106.779427,10.789444,"29, 88"
887,4019,BX27,Chợ Long Phước,Bến xe,Quận 9,Long Phước,106.85936,10.808298,88
888,4062,Q2 055,Đỗ Xuân Hợp,Ô sơn,Quận 2,Nguyễn Duy Trinh,106.779674,10.789751,"29, 88"
889,4068,Q2 059,Lê Văn Thịnh,Trụ dừng,Quận 2,Nguyễn Duy Trinh,106.770764,10.788639,"29, 88"
890,4086,BX 11,Khu dân cư Thạnh Mỹ Lợi,Bến xe,Quận 2,Thạnh Mỹ Nam,106.770614,10.770601,99
891,4098,Q9 263,Đường cầu xây,Ô sơn,Quận 9,Hoàng Hữu Nam,106.813675,10.854681,"55, 56, 99"
892,4112,BX90,Bến Xe Buýt ÐH Quốc Gia,Bến xe,Quận Thủ Đức,Đường nội bộ Đại học Quốc gia,106.77871704101562,10.884156227111816,"33, 53, 99"
893,4114,Q9 010,UBND Phường Phước Long B,Trụ dừng,Quận 9,Đỗ Xuân Hợp,106.768768,10.826657,"29, 99"
894,4119,Q9 270,Đường cầu xây,Trụ dừng,Quận 9,Hoàng Hữu Nam,106.813502,10.854813,"55, 56, 99"
895,4131,Q9T179,Ngã ba Mỹ Thành,Trụ dừng,Quận 9,Nguyễn Văn Tăng,106.814682,10.849007,"61-1, D4"
896,4149,QBT 009,Chợ An Lạc ,Trụ dừng,Quận Bình Tân,Kinh Dương Vương,106.62136,10.743396,"09, 139, 14, 148, 25, 32, 61, 62-1, 62-10, 62-2, 62-8, 63-1, 84"
897,4184,Q9 019,Đường 655,Trụ dừng,Quận 9,Đỗ Xuân Hợp,106.779162,10.800692,"29, D4"
898,4189,Q9 024,Đường 655,Trụ dừng,Quận 9,Đỗ Xuân Hợp,106.779111,10.801565,"29, D4"
899,4196,Q9 033,UBND phường Phước Long B,Trụ dừng,Quận 9,Đỗ Xuân Hợp,106.769042,10.82574,"29, 99"
900,4261,Q1 054,Lê Lợi,Nhà chờ,Quận 1,Nguyễn Huệ,106.702883,10.775127,"DL01, DL02"
901,4271,Q1 078,"Đền Thờ Ấn Giáo, Pasteur",Nhà chờ,Quận 1,Pasteur,106.70139,10.773595,"04, 109, 152, 18, 31, 36, 52, 93"
902,4273,Q1 081,Lê Duẫn,Trụ dừng,Quận 1,Pasteur,106.698333,10.778308,"04, 109, 152, 18, 31, 36, 52, 93"
903,4274,Q1 082,Nguyễn Thị Minh Khai,Nhà chờ,Quận 1,Pasteur,106.696659,10.779782,"04, 109, 152, 31, 93"
904,4312,QTP 186,Âu Cơ,Trụ dừng,Quận Tân Phú,Lũy Bán Bích,106.637898,10.794367,"30, 62"
905,4320,QTP 207,Ủy Ban nhân dân quận Tân Phú,Trụ dừng,Quận Tân Phú,Lũy Bán Bích,106.636605,10.78505,"62, 64, 69"
906,4323,QTP 210,Âu Cơ,Trụ dừng,Quận Tân Phú,Lũy Bán Bích,106.638118,10.794541,"30, 62"
907,4378,QTD 242,Đường 12,Trụ dừng,Quận Thủ Đức,Đường nhánh N8 nút giao Gò Dưa,106.733465,10.867209,"29, 89"
908,4418,Q6 072,Bãi Sậy,Trụ dừng,Quận 6,Phạm Đình Hổ,106.649303,10.748803,"101, 39"
909,4421,LA_3,Nhà máy Kizunai,Ô sơn,Huyện Bình Chánh,Quốc lộ 50 (Quốc lộ 1A),106.66023,10.633299,"47, 62-11, 62-9"
910,4599,HBC 460,Bùi Thanh Khiết,Trụ dừng,Huyện Bình Chánh,Nguyễn Hữu Trí,106.57558,10.691889,"73, 84"
911,4600,HBC 459,Bùi Thanh Khiết,Trụ dừng,Huyện Bình Chánh,Nguyễn Hữu Trí,106.575746,10.692048,"73, 84"
912,4601,HBC 458,Chùa Phước An,Ô sơn,Huyện Bình Chánh,Nguyễn Hữu Trí,106.579394,10.692659,"73, 84"
913,4628,QGV 177,City Mart,Trụ dừng,Quận Gò Vấp,Quang Trung,106.661164,10.835614,"103, 18, 24, 55"
914,4738,QGV 076,Trường Lê Thị Hồng Gấm,Trụ dừng,Quận Gò Vấp,Phạm Văn Chiêu,106.661893,10.852969,"32, 36"
915,4740,QGV 091,Trường Lê Thị Hồng Gấm,Trụ dừng,Quận Gò Vấp,Phạm Văn Chiêu,106.661314,10.852626,"32, 36"
916,4744,QGV 022,UBND Phường 16,Trụ dừng,Quận Gò Vấp,Thống Nhất,106.664811,10.842126,"146, 36"
917,4746,HHM 005,Thị trần Hóc Môn,Trụ dừng,Huyện Hóc Môn,Bà Triệu,106.596093,10.887738,"122, 62-5, 85"
918,4761,BX_100,Tân Nhựt,Bến xe,Huyện Bình Chánh,Thế Lữ,106.564373,10.705737,101
919,4767,Q6 009,Ngã tư Cây Da Sà,Trụ dừng,Quận 6,Bà Hom,106.626,10.755665,"62-6, 62-7, 81"
920,4769,Q6 011,Chợ Phú Lâm,Trụ dừng,Quận 6,Bà Hom,106.631439,10.754611,"62-6, 62-7, 81"
921,4774,Q6 063,Nguyễn Thị Nhỏ,Biển treo,Quận 6,Nguyễn Thị Nhỏ,106.650585,10.751802,"103, 23"
922,6835,Q12 175,Hiệp Thành 31,Trụ dừng,Quận 12,Nguyễn Ảnh Thủ,106.64418,10.876876,"146, 48"
923,6860,BX 84,An Thới Đông,Bến xe,Huyện Cần Giờ,An Thới Đông,106.788638,10.591123,127
924,6861,BX 85,Bà Xán,Bến xe,Huyện Cần Giờ,Bà Xán,106.81884,10.616538,127
925,6862,BX 86,Tân Điền,Bến xe,Huyện Cần Giờ,Dương Văn Hạnh,106.776466,10.466353,128
926,6863,BX 90,An Nghĩa,Bến xe,Huyện Cần Giờ,Tam Thôn Hiệp,106.830593,10.588982,128
927,6867,HCG 046,Tam Thôn Hiệp,Trụ dừng,Huyện Cần Giờ,Tam Thôn Hiệp,106.825535,10.587437,"127, 128"
928,6886,HCG 065,Rừng Sác,Trụ dừng,Huyện Cần Giờ,Tam Thôn Hiệp,106.82539,10.587579,"127, 128"
929,6923,HCG 102,Trường THPT Cần Thạnh,Ô sơn,Huyện Cần Giờ,Duyên Hải,106.948991,10.402143,"77, 90"
930,6924,HCG 103,Trường THPT Cần Thạnh,Ô sơn,Huyện Cần Giờ,Duyên Hải,106.94919,10.402021,"77, 90"
931,6942,QH568_1,Bến xe Chợ Lớn,Bến Bãi QH 568,Quận 5,Lê Quang Sung,106.651293,10.751154,62-6
932,6983,QHCTD_4,Bãi xe Phường Bình Thọ,Bến bãi QH chung QH,Quận Thủ Đức,Võ Văn Ngân,106.756484,10.851067,"61-1, 89"
933,7039,HBC_10,Quốc lộ 1A,Trụ dừng,Huyện Bình Chánh,Dương Đình Cúc,106.597633,10.705547,"101, 62-8"
934,7071,Q7 190,Hà Huy Tập,Trụ dừng,Quận 7,Nguyễn Đức Cảnh,106.708692,10.726757,"124, 68, D2"
935,7135,HCC 041,Điện lực Củ Chi - Ngã 3 Việt Kiều,Trụ dừng,Huyện Củ Chi,Quốc lộ 22,106.503161,10.9602,"13, 74, 94"
936,7137,BX 70,Khu công nghiệp Đông Nam,Bến xe,Huyện Củ Chi,Tỉnh lộ 8,106.622593,10.974419,58
937,7159,Q9 281,Trạm Hutech - Khu Công nghệ cao,Nhà chờ,Quận 9,Song hành phải Xa Lộ Hà Nội,106.785382,10.856398,"06, 08, 10, 150, 30, 52, 60-7, 67, 76"
938,7180,BXD 1,Paris Baguette,Bến xe,Quận 7,Phan Văn Nghị,106.706611,10.730778,D2
939,7189,BXD 2,Cressent mall,Bến xe,Quận 7,Lê Hoàng Thái,106.719781,10.728913,"D2, D3"
940,7190,BXD 3,Ủy ban Tân Phú,Bến xe,Quận 7,Hoàng Văn Thái,106.725676,10.73236,D3
941,7208,BXLT Bien Hoa,Bến xe Biên Hòa,Bến xe,Ngoại thành,Quốc lộ 1K,106.808953,10.954127,"05, 60-1, 60-5, 60-7"
942,7209,BXLT Hau Nghia,Bến xe Hậu Nghĩa,Bến xe,Ngoại thành,3 tháng 2,106.393039,10.900982,"62-3, 62-5, 62-6"
943,7210,BXLT Duc Hue,Bến xe Đức Huệ,Bến xe,Ngoại thành,ĐT 839,106.309923,10.898664,62-7
944,7211,BXLT Long An,Bến xe Long An,Bến xe,Ngoại thành,Quốc lộ 1A,106.404809,10.537597,62-8
945,7212,BXLT Go Cong,Bến xe Gò Công,Bến xe,Ngoại thành,Trần Công Tưởng,106.661925,10.359629,62-9
946,7213,BXLT KCN Nhon Trach,Bến xe KCN Nhơn Trạch,Bến xe,Ngoại thành,Đường HL13,106.904472,10.729651,60-3
947,7216,BXLT Di An,Bến xe Tân Đông Hiệp,Bến xe,Ngoại thành,ĐT43C,106.743188,10.930015,61-1
948,7217,BXLT Dau Tieng,Bến xe Dầu Tiếng,Bến xe,Ngoại thành,Thị Trấn Dầu Tiếng,106.362789,11.279727,61-4
949,7219,BXLT Thanh Vinh Dong,Bến xe Thanh Vĩnh Đông,Bến xe,Ngoại thành,ĐT 827,106.572146,10.435904,62-10
950,7220,BXLT Tan Lan,Bến xe Ngã 3 Tân Lân,Bến xe,Ngoại thành,ĐT 826,106.607723,10.521569,62-2
951,7257,BXLT Thu Dau Mot,Bến xe Thủ Dầu Một,Bến xe,Ngoại thành,Đường 30 tháng 4,106.668524,10.96564,61-3
952,7259,BXLT KDC Nam Long,Khu dân cư Nam Long,Bến xe,Ngoại thành,ĐT 824,106.464842,10.6621,62-4
953,7261,BXLT HOA THANH,Bến xe Hòa Thành,Bến xe,Ngoại thành,ĐT 781,106.128219,11.281074,70-2
954,7263,BXLT Tan Tap,Bến xe Tân Tập ,Bến xe,Ngoại thành,Đường DT 19,106.734581,10.530851,62-11
955,7264,Q1 178,Trạm Trung chuyển trên đường Hàm Nghi,Nhà chờ,Quận 1,Hàm Nghi,106.700758,10.770985,"18, 31, 36, 44, 65"
956,7266,Q1 180,Trạm Trung chuyển trên đường Hàm Nghi,Nhà chờ,Quận 1,Hàm Nghi,106.700807,10.770896,"01, 03, 04, 19, 56, 88"
957,7269,Q1 183,Trạm Trung chuyển trên đường Hàm Nghi,Nhà chờ,Quận 1,Hàm Nghi,106.699514,10.771117,"03, 19, 56, 88"
958,7273,Q1 187,Khách sạn New World,Ô sơn,Quận 1,Lê Lai,106.695946,10.770964,"03, 04, 102, 109, 18, 19, 20, 34, 36, 39, 52, 53, 75, 88, 93, D4"
959,7274,Q1 188,Nguyễn Thị Nghĩa,Trụ dừng,Quận 1,Lê Lai,106.693495,10.769952,"03, 04, 102, 109, 140, 18, 19, 20, 34, 36, 39, 52, 53, 69, 72, 75, 88, 93, D4"
960,7276,Q1 190,Tôn Thất Tùng,Trụ dừng,Quận 1,Phạm Ngũ Lão,106.690941,10.76767,"03, 04, 102, 109, 140, 18, 19, 20, 28, 34, 36, 39, 46, 52, 65, 69, 72, 75, 88, 93, D4"
961,7277,Q1 191,Nguyễn Thị Nghĩa,Trụ dừng,Quận 1,Phạm Ngũ Lão,106.693699,10.768788,"03, 04, 102, 109, 140, 18, 19, 20, 28, 34, 36, 39, 46, 52, 65, 69, 72, 93, D4, DL01, DL02"
962,7278,Q1 192,Trường Emst Thalmann,Nhà chờ,Quận 1,Phạm Ngũ Lão,106.695587,10.769504,"03, 04, 102, 109, 18, 19, 20, 28, 34, 36, 39, 52, 65, 69, 93, D4"
963,7280,BXLT Phu Tuc,Bến xe Phú Túc,Bến xe,Ngoại thành,Quốc lộ 20,107.217992,11.09212,60-2
964,7281,BXLT LOC HUNG,Bến xe Lộc Hưng,Bến xe,Ngoại thành,Đường tỉnh 787,106.390572,11.101431,70-5
965,7282,BX101,Bến xe buýt Chợ Lớn - A,Bến xe,Quận 6,Lê Quang Sung,106.652607,10.751259,"103, 16"
966,7304,BX_68,Đại học tài chính Maketing,Bến xe,Quận 7,Đường số 13,106.720515,10.75146,68
967,7508,BX 91,Bến tàu thủy Hiệp Bình Chánh,Bến xe,Quận Thủ Đức,Số 10,106.731545,10.827458,89
968,7509,BXLT Tay Ninh,Bến xe Tây Ninh,Bến xe,Ngoại thành,Trưng Nữ Vương,106.087836,11.309938,70-1
969,7564,Q1 196,Bảo tàng Mỹ Thuật,Trụ dừng,Quận 1,Nguyễn Thái Bình,106.699669,10.769251,"102, 34, 38, 39, D4"
970,7582,BX 17-1,Đại học Tôn Đức Thắng,Bến xe,Quận 7,Nguyễn Hữu Thọ,106.699111,10.732929,31
971,7591,BXLT Binh Duong,Bến xe Bình Dương,Bến xe,Ngoại thành,Ba Mươi Tháng Tư,106.66818,10.966272,61-7
972,7595,BXLT Vũng Tàu,BẾN XE VŨNG TÀU,Bến xe,Ngoại thành,Nam Kỳ Khởi Nghĩa,107.086723,10.350457,72-1
973,7604,QBT 305,Trường Trí Tuệ Việt,Ô sơn,Quận Bình Tân,Đường số 3,106.591169,10.803652,69
974,7614,Q1 201,Công xã Paris,Ô sơn,Quận 1,Công xã Paris,106.699787,10.779464,DL01
975,7615,Q1 202,Bảo tàng Lịch sử Việt Nam,Trụ dừng,Quận 1,Lê Duẩn,106.704352,10.786658,"19, DL01, DL02"
976,7616,Q1 203,Dinh Độc Lập,Ô sơn,Quận 1,Lê Duẩn,106.696499,10.778405,DL01
977,7617,HCC 279,chợ Củ Chi,Nhà chờ,Huyện Củ Chi,Quốc lộ 22,106.482453,10.970495,"126, 13, 62-3, 74, 94"
978,7624,QTD 255,Đại học Quốc tế,Nhà chờ,Quận Thủ Đức,Quảng Trường Sáng Tạo,106.80257,10.876476,"08, 10, 19, 30, 52, 53"
979,7626,QTD 267,KTX Khu B ĐHQG,Nhà chờ,Quận Thủ Đức,Trục chính số 7,106.78233,10.881686,"33, 53, 99"
980,7632,QTD 250,Đại học Khoa học xã hội và Nhân văn,Nhà chờ,Quận Thủ Đức,Quảng Trường Sáng Tạo,106.802334,10.873446,"08, 10, 19, 30, 50, 53"
981,7646,QTD 249,Nhà văn hoá sinh viên,Nhà chờ,Quận Thủ Đức,Quảng Trường Sáng Tạo,106.799995,10.874542,"50, 52, 53"
982,7647,QTD 252,KTX Khu A ĐH Quốc Gia TPHCM,Nhà chờ,Quận Thủ Đức,Quảng Trường Sáng Tạo,106.804914,10.875638,"08, 10, 19, 30, 33, 50, 52, 99"
983,7648,QTD 253,KTX Khu A ĐH Quốc Gia TPHCM,Nhà chờ,Quận Thủ Đức,Quảng Trường Sáng Tạo,106.804968,10.875886,"08, 10, 19, 30, 33, 50, 52, 99"
984,7650,QTD 271,Bến xe buýt Khu A ĐHQG,Trụ dừng,Quận Thủ Đức,Quảng Trường Sáng Tạo,106.803042,10.87362,"08, 10, 19, 30, 50, 52, 53"
985,7651,QTD 272,ĐH Khoa học tự nhiên,Trụ dừng,Quận Thủ Đức,Đường 621,106.806271,10.874619,"08, 10, 19, 30, 33, 50, 52, 99"
986,7656,QTD 273,Đại học Quốc tế,Nhà chờ,Quận Thủ Đức,Lê Quý Đôn,106.803004,10.876792,"33, 50, 53, 99"
987,7678,Q9 285,Trường CĐ Sư phạm Trung ương 2 (CS2),Trụ dừng,Quận 9,Liên Phường,106.782528,10.806112,"29, D4"
988,7681,Q7 196,Lotte Mart,Nhà chờ,Quận 7,Nguyễn Thị Thập,106.701735,10.740339,"140, 31"
989,7682,SWB1_1,Ga tàu thuỷ Bạch Đằng,Trạm tạm,Quận 1,Tôn Đức Thắng,106.706901,10.775264,SWB1
990,7686,SWB1_11,Ga tàu thuỷ Linh Đông,Trạm tạm,Quận Thủ Đức,Đường số 36,106.746254,10.835287,SWB1
991,7694,BXLT Tan Tru,Bến xe khách Tân Trụ,Bến xe,Ngoại thành,Đức Tân,106.519682,10.521948,62-1
992,7695,BX 33,Bến xe Miền Đông mới,Bến xe,Quận 9,Quốc lộ 1,106.81497,10.878606,"55, 56, 67, 76, 93"
993,7696,BX 34,Vinhomes Grandpark,Bến xe,Quận 9,Nội khu Vinhomes,106.842998,10.846214,D4
994,7697,Q1 204,Nhà hát Thành phố,Trụ dừng,Quận 1,Công trường Lam Sơn,106.702926,10.776909,DL02
995,7700,Q9 286,Chung Cư Samsora Riverside,Trụ dừng,Quận 9,Quốc Lộ 1,106.833655,10.899661,"150, 60-1, 60-2, 60-3, 60-7"
996,7701,BX 101,Đại học Kinh Tế TP.HCM (Cơ sở Nguyễn Văn Linh),Bến xe,Huyện Bình Chánh,Nguyễn Văn Linh,106.639405,10.706227,45
997,7757,HBC 466,THCS Tân Nhựt,Nhà chờ,Huyện Bình Chánh,Thế Lữ,106.566986,10.705577,"101, 22"
998,7771,TĐC_110,Bến Đò Ấp 3,Bến xe,Huyện Nhà Bè,Đào sư Tích,106.680422,10.683698,110
999,7782,Q2 107,UBND Thành phố Thủ Đức,Trụ dừng,Quận 2,Phan Văn Đáng,106.75676,10.77753,"99, D4"
1000,7800,HHM 245,Trường Đại học Ngoại ngữ - Tin học TP.HCM,Trụ dừng,Huyện Hóc Môn,Quốc lộ 22,106.600921,10.864569,"122, 13, 62-5, 74, 85, 94"
1001,7803,Q1 026,Ba Son,Ô sơn,Quận 1,Tôn Đức Thắng,106.706815,10.781625,"44, 56, 88"
1002,7806,BX 102,Bến xe Tiền Giang,Bến xe,Huyện Bình Chánh,Ấp Bắc,106.34646,10.37342,63-1
1003,7807,QTB 162,Ga Quốc nội Sân bay Tân Sơn Nhất,Biển treo,Quận Tân Bình,Làn B - Ga Quốc nội,106.66281,10.813927,"103, 109, 152, 72-1"
1004,7829,BX92,Bến xe buýt ĐH Quốc gia TPHCM (mới),Bến xe,Quận Thủ Đức,Nguyễn Hiền,106.807659,10.874479,"08, 10, 19, 30, 50, 52"
